{
"type": "FeatureCollection",
"name": "bike_lanes_clipped",
"crs": { "type": "name", "properties": { "name": "urn:ogc:def:crs:OGC:1.3:CRS84" } },
"features": [
{ "type": "Feature", "properties": { "ROUTEID": "11000902", "ROUTENAME": "9TH ST NW", "ROADTYPE": "1", "SUBBLOCKKEY": "4dbe4f7170bd8897e80c0bab6f4e5a2d", "BIKELANE_PARKINGLANE_ADJACENT": null, "BIKELANE_THROUGHLANE_ADJACENT": "IB", "BIKELANE_POCKETLANE_ADJACENT": null, "BIKELANE_CONTRAFLOW": "IB", "BIKELANE_CONVENTIONAL": "IB", "BIKELANE_DUAL_PROTECTED": null, "BIKELANE_DUAL_BUFFERED": null, "BIKELANE_PROTECTED": null, "BIKELANE_BUFFERED": null, "SUBBLOCKID": "11000902-11000902_11069812-11000902_11026912", "BLOCKID": "11000902-11000902_11069812-11000902_11026912", "BLOCKKEY": "4dbe4f7170bd8897e80c0bab6f4e5a2d", "QUADRANT": 1.0, "STREETNAME": "9TH", "STREETTYPE": "ST", "TOTALBIKELANES": 3, "TOTALBIKELANEWIDTH": 18, "WARD_ID": "2", "SMD_ID": "2C03", "ANC_ID": "2C", "OBJECTID": 10429113, "SHAPE.LEN": 0, "LENGTH": 102.18332474 }, "geometry": { "type": "LineString", "coordinates": [ [ -77.023977432936974, 38.89388435460728 ], [ -77.023955850288459, 38.894147889897837 ], [ -77.023966525003161, 38.894698281071307 ], [ -77.02397469885733, 38.89480406467144 ] ] } },
{ "type": "Feature", "properties": { "ROUTEID": "11000902", "ROUTENAME": "9TH ST NW", "ROADTYPE": "1", "SUBBLOCKKEY": "7ca2d5ab764d089fb592cda11165f154", "BIKELANE_PARKINGLANE_ADJACENT": null, "BIKELANE_THROUGHLANE_ADJACENT": null, "BIKELANE_POCKETLANE_ADJACENT": null, "BIKELANE_CONTRAFLOW": null, "BIKELANE_CONVENTIONAL": null, "BIKELANE_DUAL_PROTECTED": "IB", "BIKELANE_DUAL_BUFFERED": null, "BIKELANE_PROTECTED": null, "BIKELANE_BUFFERED": null, "SUBBLOCKID": "11000902-11000902_11026912-11000902_11031332", "BLOCKID": "11000902-11000902_11026912-11000902_11031332", "BLOCKKEY": "7ca2d5ab764d089fb592cda11165f154", "QUADRANT": 1.0, "STREETNAME": "9TH", "STREETTYPE": "ST", "TOTALBIKELANES": 2, "TOTALBIKELANEWIDTH": 8, "WARD_ID": "2", "SMD_ID": "2C03", "ANC_ID": "2C", "OBJECTID": 10429126, "SHAPE.LEN": 0, "LENGTH": 148.37302264 }, "geometry": { "type": "LineString", "coordinates": [ [ -77.02397469885733, 38.89480406467144 ], [ -77.023974688298793, 38.894806947351633 ], [ -77.023977349343966, 38.89490455248211 ], [ -77.023979123413497, 38.894969727665732 ], [ -77.023980233694573, 38.895529237189066 ], [ -77.023970522932828, 38.895995719472133 ], [ -77.023967641569612, 38.896134511972662 ], [ -77.023967678180256, 38.896140547570916 ] ] } },
{ "type": "Feature", "properties": { "ROUTEID": "11001002", "ROUTENAME": "10TH ST NW", "ROADTYPE": "1", "SUBBLOCKKEY": "0a2b07e73d05368009c00f01683f5e14", "BIKELANE_PARKINGLANE_ADJACENT": "IB", "BIKELANE_THROUGHLANE_ADJACENT": "IB", "BIKELANE_POCKETLANE_ADJACENT": null, "BIKELANE_CONTRAFLOW": null, "BIKELANE_CONVENTIONAL": "IB", "BIKELANE_DUAL_PROTECTED": null, "BIKELANE_DUAL_BUFFERED": null, "BIKELANE_PROTECTED": null, "BIKELANE_BUFFERED": null, "SUBBLOCKID": "11001002-11001002_11069812-11001002_11031332", "BLOCKID": "11001002-11001002_11069812-11001002_11031332", "BLOCKKEY": "0a2b07e73d05368009c00f01683f5e14", "QUADRANT": 1.0, "STREETNAME": "10TH", "STREETTYPE": "ST", "TOTALBIKELANES": 1, "TOTALBIKELANEWIDTH": 5, "WARD_ID": "2", "SMD_ID": "2C03", "ANC_ID": "2C", "OBJECTID": 10429248, "SHAPE.LEN": 0, "LENGTH": 187.52370343000001 }, "geometry": { "type": "LineString", "coordinates": [ [ -77.026004099719472, 38.894451610454702 ], [ -77.02598713597223, 38.896140836412854 ] ] } },
{ "type": "Feature", "properties": { "ROUTEID": "11001102", "ROUTENAME": "11TH ST NW", "ROADTYPE": "1", "SUBBLOCKKEY": "e0b6f85b94e58354ebca40415a0e30a2", "BIKELANE_PARKINGLANE_ADJACENT": "OB", "BIKELANE_THROUGHLANE_ADJACENT": "BD", "BIKELANE_POCKETLANE_ADJACENT": null, "BIKELANE_CONTRAFLOW": null, "BIKELANE_CONVENTIONAL": "BD", "BIKELANE_DUAL_PROTECTED": null, "BIKELANE_DUAL_BUFFERED": null, "BIKELANE_PROTECTED": null, "BIKELANE_BUFFERED": null, "SUBBLOCKID": "11001102-11001102_11069812-11001102_11031332", "BLOCKID": "11001102-11001102_11069812-11001102_11031332", "BLOCKKEY": "e0b6f85b94e58354ebca40415a0e30a2", "QUADRANT": 1.0, "STREETNAME": "11TH", "STREETTYPE": "ST", "TOTALBIKELANES": 3, "TOTALBIKELANEWIDTH": 13, "WARD_ID": "2", "SMD_ID": "2C03", "ANC_ID": "2C", "OBJECTID": 10429291, "SHAPE.LEN": 0, "LENGTH": 154.65059121 }, "geometry": { "type": "LineString", "coordinates": [ [ -77.027055800130924, 38.894744341771371 ], [ -77.027043371534333, 38.896137461737958 ] ] } },
{ "type": "Feature", "properties": { "ROUTEID": "11001202", "ROUTENAME": "12TH ST NW", "ROADTYPE": "1", "SUBBLOCKKEY": "db58a5555134587dd48abd4c7ad9a82e", "BIKELANE_PARKINGLANE_ADJACENT": "OB", "BIKELANE_THROUGHLANE_ADJACENT": "OB", "BIKELANE_POCKETLANE_ADJACENT": null, "BIKELANE_CONTRAFLOW": null, "BIKELANE_CONVENTIONAL": "OB", "BIKELANE_DUAL_PROTECTED": null, "BIKELANE_DUAL_BUFFERED": null, "BIKELANE_PROTECTED": null, "BIKELANE_BUFFERED": null, "SUBBLOCKID": "11001202-11001202_11069812-11001202_11031332", "BLOCKID": "11001202-11001202_11069812-11001202_11031332", "BLOCKKEY": "db58a5555134587dd48abd4c7ad9a82e", "QUADRANT": 1.0, "STREETNAME": "12TH", "STREETTYPE": "ST", "TOTALBIKELANES": 1, "TOTALBIKELANEWIDTH": 5, "WARD_ID": "2", "SMD_ID": "2C03", "ANC_ID": "2C", "OBJECTID": 10429332, "SHAPE.LEN": 0, "LENGTH": 123.63726967 }, "geometry": { "type": "LineString", "coordinates": [ [ -77.028098329153337, 38.895026363870876 ], [ -77.028101486047731, 38.895110059864471 ], [ -77.02809819419663, 38.895239781162381 ], [ -77.028098566379072, 38.895277436052524 ], [ -77.028088718198376, 38.895472829926327 ], [ -77.028084169027395, 38.896010477421541 ], [ -77.028083210628409, 38.896123505633213 ], [ -77.028083355413912, 38.896139900826256 ] ] } },
{ "type": "Feature", "properties": { "ROUTEID": "11001502", "ROUTENAME": "15TH ST NW", "ROADTYPE": "1", "SUBBLOCKKEY": "d80667b2971bd67080ed11e02b2962f2", "BIKELANE_PARKINGLANE_ADJACENT": null, "BIKELANE_THROUGHLANE_ADJACENT": null, "BIKELANE_POCKETLANE_ADJACENT": null, "BIKELANE_CONTRAFLOW": null, "BIKELANE_CONVENTIONAL": null, "BIKELANE_DUAL_PROTECTED": "IB", "BIKELANE_DUAL_BUFFERED": null, "BIKELANE_PROTECTED": null, "BIKELANE_BUFFERED": null, "SUBBLOCKID": "11001502-11001502_11034382-11001502_11038612", "BLOCKID": "11001502-11001502_11034382-11001502_11038612", "BLOCKKEY": "d80667b2971bd67080ed11e02b2962f2", "QUADRANT": 1.0, "STREETNAME": "15TH", "STREETTYPE": "ST", "TOTALBIKELANES": 2, "TOTALBIKELANEWIDTH": 9, "WARD_ID": "2", "SMD_ID": "2A07", "ANC_ID": "2A", "OBJECTID": 10429736, "SHAPE.LEN": 0, "LENGTH": 107.58016322 }, "geometry": { "type": "LineString", "coordinates": [ [ -77.033647641073642, 38.897352938456216 ], [ -77.033647367566189, 38.897506269916384 ], [ -77.03364619504309, 38.898173168477797 ], [ -77.033645930962564, 38.898322058789574 ] ] } },
{ "type": "Feature", "properties": { "ROUTEID": "11001502", "ROUTENAME": "15TH ST NW", "ROADTYPE": "1", "SUBBLOCKKEY": "5844837f753cc5ed6af430454a8399e3", "BIKELANE_PARKINGLANE_ADJACENT": null, "BIKELANE_THROUGHLANE_ADJACENT": null, "BIKELANE_POCKETLANE_ADJACENT": null, "BIKELANE_CONTRAFLOW": null, "BIKELANE_CONVENTIONAL": null, "BIKELANE_DUAL_PROTECTED": "IB", "BIKELANE_DUAL_BUFFERED": null, "BIKELANE_PROTECTED": null, "BIKELANE_BUFFERED": null, "SUBBLOCKID": "11001502-11001502_11009682_11069812-11001502_11034382", "BLOCKID": "11001502-11001502_11009682_11069812-11001502_11034382", "BLOCKKEY": "5844837f753cc5ed6af430454a8399e3", "QUADRANT": 1.0, "STREETNAME": "15TH", "STREETTYPE": "ST", "TOTALBIKELANES": 2, "TOTALBIKELANEWIDTH": 10, "WARD_ID": "2", "SMD_ID": "2A07", "ANC_ID": "2A", "OBJECTID": 10429739, "SHAPE.LEN": 0, "LENGTH": 104.64291653 }, "geometry": { "type": "LineString", "coordinates": [ [ -77.033651530822937, 38.896410301925592 ], [ -77.033652367127942, 38.896545868593179 ], [ -77.033653003617502, 38.89664884304586 ], [ -77.033648312640082, 38.896968190973361 ], [ -77.033647893818952, 38.897204471515153 ], [ -77.033647641073642, 38.897352938456216 ] ] } },
{ "type": "Feature", "properties": { "ROUTEID": "11001502", "ROUTENAME": "15TH ST NW", "ROADTYPE": "1", "SUBBLOCKKEY": "f3066c8ea96106b370421458f2958738", "BIKELANE_PARKINGLANE_ADJACENT": null, "BIKELANE_THROUGHLANE_ADJACENT": null, "BIKELANE_POCKETLANE_ADJACENT": null, "BIKELANE_CONTRAFLOW": null, "BIKELANE_CONVENTIONAL": null, "BIKELANE_DUAL_PROTECTED": "IB", "BIKELANE_DUAL_BUFFERED": null, "BIKELANE_PROTECTED": null, "BIKELANE_BUFFERED": null, "SUBBLOCKID": "11001502-11001502_11038612-11001502_11064672_11069812", "BLOCKID": "11001502-11001502_11038612-11001502_11064672_11069812", "BLOCKKEY": "f3066c8ea96106b370421458f2958738", "QUADRANT": 1.0, "STREETNAME": "15TH", "STREETTYPE": "ST", "TOTALBIKELANES": 2, "TOTALBIKELANEWIDTH": 9, "WARD_ID": "2", "SMD_ID": "2A07", "ANC_ID": "2A", "OBJECTID": 10429744, "SHAPE.LEN": 0, "LENGTH": 51.89949922 }, "geometry": { "type": "LineString", "coordinates": [ [ -77.033645930962564, 38.898322058789574 ], [ -77.033645721623046, 38.898440365687868 ], [ -77.033645495320044, 38.898571590581412 ], [ -77.033645140918054, 38.898626757899521 ], [ -77.033644474051968, 38.898728246309524 ], [ -77.033644076446876, 38.898789584367073 ] ] } },
{ "type": "Feature", "properties": { "ROUTEID": "11001502", "ROUTENAME": "15TH ST NW", "ROADTYPE": "1", "SUBBLOCKKEY": "48d0f8bb3b7382f3780469515e3e8be5", "BIKELANE_PARKINGLANE_ADJACENT": null, "BIKELANE_THROUGHLANE_ADJACENT": null, "BIKELANE_POCKETLANE_ADJACENT": null, "BIKELANE_CONTRAFLOW": null, "BIKELANE_CONVENTIONAL": null, "BIKELANE_DUAL_PROTECTED": "IB", "BIKELANE_DUAL_BUFFERED": null, "BIKELANE_PROTECTED": null, "BIKELANE_BUFFERED": null, "SUBBLOCKID": "11001502-11001502_11025352-11001502_11031332_11069812", "BLOCKID": "11001502-11001502_11025352-11001502_11031332_11069812", "BLOCKKEY": "48d0f8bb3b7382f3780469515e3e8be5", "QUADRANT": 1.0, "STREETNAME": "15TH", "STREETTYPE": "ST", "TOTALBIKELANES": 2, "TOTALBIKELANEWIDTH": 12, "WARD_ID": "2", "SMD_ID": "2A07", "ANC_ID": "2A", "OBJECTID": 10429756, "SHAPE.LEN": 0, "LENGTH": 376.310626 }, "geometry": { "type": "LineString", "coordinates": [ [ -77.033655294342907, 38.892097300416332 ], [ -77.033643403807815, 38.892279516211083 ], [ -77.033642419584965, 38.892294560477914 ], [ -77.033638359001202, 38.892483557315131 ], [ -77.033637986359608, 38.892671111744207 ], [ -77.033637729241264, 38.892859206636167 ], [ -77.033637692978246, 38.893026762369949 ], [ -77.033637316126743, 38.893205398494139 ], [ -77.033647150639169, 38.893649328206649 ], [ -77.033650201229662, 38.89388498631083 ], [ -77.033643375855377, 38.894322254574654 ], [ -77.033647570598617, 38.895150663012622 ], [ -77.033647655788869, 38.895331271769166 ], [ -77.033647729171207, 38.895486846268277 ] ] } },
{ "type": "Feature", "properties": { "ROUTEID": "11001502", "ROUTENAME": "15TH ST NW", "ROADTYPE": "1", "SUBBLOCKKEY": "0ae3ea390d14b982dda469e6dafd174a", "BIKELANE_PARKINGLANE_ADJACENT": null, "BIKELANE_THROUGHLANE_ADJACENT": null, "BIKELANE_POCKETLANE_ADJACENT": null, "BIKELANE_CONTRAFLOW": null, "BIKELANE_CONVENTIONAL": null, "BIKELANE_DUAL_PROTECTED": "IB", "BIKELANE_DUAL_BUFFERED": null, "BIKELANE_PROTECTED": null, "BIKELANE_BUFFERED": null, "SUBBLOCKID": "11001502-11001502_11031332_11069812-11001502_11009682_11069812", "BLOCKID": "11001502-11001502_11031332_11069812-11001502_11009682_11069812", "BLOCKKEY": "0ae3ea390d14b982dda469e6dafd174a", "QUADRANT": 1.0, "STREETNAME": "15TH", "STREETTYPE": "ST", "TOTALBIKELANES": 2, "TOTALBIKELANEWIDTH": 10, "WARD_ID": "2", "SMD_ID": "2A07", "ANC_ID": "2A", "OBJECTID": 10429758, "SHAPE.LEN": 0, "LENGTH": 102.51266412 }, "geometry": { "type": "LineString", "coordinates": [ [ -77.033647729171207, 38.895486846268277 ], [ -77.033647813478424, 38.895665581273782 ], [ -77.033648143536226, 38.895705470231512 ], [ -77.033652944539298, 38.896279265815046 ], [ -77.033651530822937, 38.896410301925592 ] ] } },
{ "type": "Feature", "properties": { "ROUTEID": "11002002", "ROUTENAME": "20TH ST NW", "ROADTYPE": "1", "SUBBLOCKKEY": "1d05b5614363a84e0c327ea8b56012bc", "BIKELANE_PARKINGLANE_ADJACENT": null, "BIKELANE_THROUGHLANE_ADJACENT": null, "BIKELANE_POCKETLANE_ADJACENT": null, "BIKELANE_CONTRAFLOW": null, "BIKELANE_CONVENTIONAL": null, "BIKELANE_DUAL_PROTECTED": "IB", "BIKELANE_DUAL_BUFFERED": null, "BIKELANE_PROTECTED": null, "BIKELANE_BUFFERED": null, "SUBBLOCKID": "11002002-11002002_11047772-11002002_21050891", "BLOCKID": "11002002-11002002_11047772-11002002_11050892", "BLOCKKEY": "0961caedd29a2aea89daf86766e94231", "QUADRANT": 1.0, "STREETNAME": "20TH", "STREETTYPE": "ST", "TOTALBIKELANES": 2, "TOTALBIKELANEWIDTH": 10, "WARD_ID": "2", "SMD_ID": "2A08", "ANC_ID": "2A", "OBJECTID": 10430160, "SHAPE.LEN": 0, "LENGTH": 117.92304504000001 }, "geometry": { "type": "LineString", "coordinates": [ [ -77.04490436877154, 38.901345299229796 ], [ -77.044904044356215, 38.901397664946273 ], [ -77.044904077316062, 38.901450021516638 ], [ -77.044904137309658, 38.901545320923049 ], [ -77.044903840000558, 38.901640746582181 ], [ -77.044903899988327, 38.90173603697697 ], [ -77.044903591070295, 38.901831336520289 ], [ -77.044903293759361, 38.901926762174504 ], [ -77.044902996362481, 38.902022052701788 ], [ -77.044903056355125, 38.902117352098401 ], [ -77.044902759042202, 38.902212777747721 ], [ -77.044902450029852, 38.902307933149167 ], [ -77.044902101150541, 38.902321445819759 ], [ -77.044901071688159, 38.902407584130394 ] ] } },
{ "type": "Feature", "properties": { "ROUTEID": "11002002", "ROUTENAME": "20TH ST NW", "ROADTYPE": "1", "SUBBLOCKKEY": "7fe918cd5d011951284b7662d3ee9093", "BIKELANE_PARKINGLANE_ADJACENT": null, "BIKELANE_THROUGHLANE_ADJACENT": null, "BIKELANE_POCKETLANE_ADJACENT": null, "BIKELANE_CONTRAFLOW": null, "BIKELANE_CONVENTIONAL": null, "BIKELANE_DUAL_PROTECTED": "IB", "BIKELANE_DUAL_BUFFERED": null, "BIKELANE_PROTECTED": null, "BIKELANE_BUFFERED": null, "SUBBLOCKID": "11002002-11002002_11042442-11002002_11047772_11069812", "BLOCKID": "11002002-11002002_11042442-11002002_11047772_11069812", "BLOCKKEY": "7fe918cd5d011951284b7662d3ee9093", "QUADRANT": 1.0, "STREETNAME": "20TH", "STREETTYPE": "ST", "TOTALBIKELANES": 2, "TOTALBIKELANEWIDTH": 8, "WARD_ID": "2", "SMD_ID": "2A07", "ANC_ID": "2A", "OBJECTID": 10430167, "SHAPE.LEN": 0, "LENGTH": 125.03544702000001 }, "geometry": { "type": "LineString", "coordinates": [ [ -77.044907584668564, 38.899586559714315 ], [ -77.044908360298621, 38.899664959190538 ], [ -77.044909895963656, 38.899815290141888 ], [ -77.044906793000479, 38.900050346511151 ], [ -77.044905522022333, 38.900320462706809 ], [ -77.044902425061792, 38.90054679895939 ], [ -77.04490181485788, 38.900712886333991 ] ] } },
{ "type": "Feature", "properties": { "ROUTEID": "11002002", "ROUTENAME": "20TH ST NW", "ROADTYPE": "1", "SUBBLOCKKEY": "b64fac6736403f8499770f736f318c29", "BIKELANE_PARKINGLANE_ADJACENT": null, "BIKELANE_THROUGHLANE_ADJACENT": null, "BIKELANE_POCKETLANE_ADJACENT": null, "BIKELANE_CONTRAFLOW": null, "BIKELANE_CONVENTIONAL": null, "BIKELANE_DUAL_PROTECTED": "IB", "BIKELANE_DUAL_BUFFERED": null, "BIKELANE_PROTECTED": null, "BIKELANE_BUFFERED": null, "SUBBLOCKID": "11002002-11002002_11047772_11069812-11002002_11047772", "BLOCKID": "11002002-11002002_11047772_11069812-11002002_11047772", "BLOCKKEY": "b64fac6736403f8499770f736f318c29", "QUADRANT": 1.0, "STREETNAME": "20TH", "STREETTYPE": "ST", "TOTALBIKELANES": 2, "TOTALBIKELANEWIDTH": 8, "WARD_ID": "2", "SMD_ID": "2A08", "ANC_ID": "2A", "OBJECTID": 10430169, "SHAPE.LEN": 0, "LENGTH": 70.20383897000001 }, "geometry": { "type": "LineString", "coordinates": [ [ -77.04490181485788, 38.900712886333991 ], [ -77.044901176292655, 38.900852236902118 ], [ -77.044901195430896, 38.900882640109693 ], [ -77.04490359172047, 38.901246351710014 ], [ -77.04490436877154, 38.901345299229796 ] ] } },
{ "type": "Feature", "properties": { "ROUTEID": "11031332", "ROUTENAME": "E ST NW", "ROADTYPE": "1", "SUBBLOCKKEY": "00344f36d0001af834f09fd5cdaa28d4", "BIKELANE_PARKINGLANE_ADJACENT": "BD", "BIKELANE_THROUGHLANE_ADJACENT": "BD", "BIKELANE_POCKETLANE_ADJACENT": null, "BIKELANE_CONTRAFLOW": null, "BIKELANE_CONVENTIONAL": "BD", "BIKELANE_DUAL_PROTECTED": null, "BIKELANE_DUAL_BUFFERED": null, "BIKELANE_PROTECTED": null, "BIKELANE_BUFFERED": null, "SUBBLOCKID": "11031332-11001202_11031332-11001302_11031332_11069812", "BLOCKID": "11031332-11001202_11031332-11001302_11031332_11069812", "BLOCKKEY": "00344f36d0001af834f09fd5cdaa28d4", "QUADRANT": 1.0, "STREETNAME": "E", "STREETTYPE": "ST", "TOTALBIKELANES": 2, "TOTALBIKELANEWIDTH": 10, "WARD_ID": "2", "SMD_ID": "2C03", "ANC_ID": "2C", "OBJECTID": 10432776, "SHAPE.LEN": 0, "LENGTH": 135.20203695000001 }, "geometry": { "type": "LineString", "coordinates": [ [ -77.028083355413912, 38.896139900826256 ], [ -77.028245916928824, 38.89613913195214 ], [ -77.028484836931071, 38.896138001938212 ], [ -77.029162197120243, 38.896138195129211 ], [ -77.029423284013191, 38.896135580287527 ], [ -77.029641857382202, 38.896133390043261 ] ] } },
{ "type": "Feature", "properties": { "ROUTEID": "11038612", "ROUTENAME": "G ST NW", "ROADTYPE": "1", "SUBBLOCKKEY": "976bb068f602e64ad1247dfd419fffc9", "BIKELANE_PARKINGLANE_ADJACENT": "BD", "BIKELANE_THROUGHLANE_ADJACENT": "BD", "BIKELANE_POCKETLANE_ADJACENT": null, "BIKELANE_CONTRAFLOW": null, "BIKELANE_CONVENTIONAL": "BD", "BIKELANE_DUAL_PROTECTED": null, "BIKELANE_DUAL_BUFFERED": null, "BIKELANE_PROTECTED": null, "BIKELANE_BUFFERED": null, "SUBBLOCKID": "11038612-11001402_11038612-11001502_11038612", "BLOCKID": "11038612-11001402_11038612-11001502_11038612", "BLOCKKEY": "976bb068f602e64ad1247dfd419fffc9", "QUADRANT": 1.0, "STREETNAME": "G", "STREETTYPE": "ST", "TOTALBIKELANES": 2, "TOTALBIKELANEWIDTH": 10, "WARD_ID": "2", "SMD_ID": "2C01", "ANC_ID": "2C", "OBJECTID": 10433354, "SHAPE.LEN": 0, "LENGTH": 146.46324816000001 }, "geometry": { "type": "LineString", "coordinates": [ [ -77.031957586726833, 38.89832437959776 ], [ -77.032170046278765, 38.8983241411131 ], [ -77.032433217144657, 38.898323843131301 ], [ -77.033233372163664, 38.898327581908568 ], [ -77.033460113508937, 38.898324544420987 ], [ -77.033645930962564, 38.898322058789574 ] ] } },
{ "type": "Feature", "properties": { "ROUTEID": "11038612", "ROUTENAME": "G ST NW", "ROADTYPE": "1", "SUBBLOCKKEY": "64c03c846136f580302a06e3dcbce3d1", "BIKELANE_PARKINGLANE_ADJACENT": null, "BIKELANE_THROUGHLANE_ADJACENT": null, "BIKELANE_POCKETLANE_ADJACENT": null, "BIKELANE_CONTRAFLOW": null, "BIKELANE_CONVENTIONAL": null, "BIKELANE_DUAL_PROTECTED": "IB", "BIKELANE_DUAL_BUFFERED": null, "BIKELANE_PROTECTED": null, "BIKELANE_BUFFERED": null, "SUBBLOCKID": "11038612-11001702_11038612-11001802_11038612", "BLOCKID": "11038612-11001702_11038612-11001802_11038612", "BLOCKKEY": "64c03c846136f580302a06e3dcbce3d1", "QUADRANT": 1.0, "STREETNAME": "G", "STREETTYPE": "ST", "TOTALBIKELANES": 2, "TOTALBIKELANEWIDTH": 10, "WARD_ID": "2", "SMD_ID": "2A07", "ANC_ID": "2A", "OBJECTID": 10433370, "SHAPE.LEN": 0, "LENGTH": 193.47799046 }, "geometry": { "type": "LineString", "coordinates": [ [ -77.039474257930024, 38.898329459229771 ], [ -77.039587011930877, 38.898328295027916 ], [ -77.039688249612468, 38.898327278764327 ], [ -77.040280850564997, 38.898320887177391 ], [ -77.04077150337406, 38.898323104173748 ], [ -77.040874182522458, 38.898322960190598 ], [ -77.041305395748395, 38.898322358093033 ], [ -77.041579183338754, 38.898321270041997 ], [ -77.041629617837515, 38.898320972820187 ], [ -77.041704550156197, 38.898322351397219 ] ] } },
{ "type": "Feature", "properties": { "ROUTEID": "11053492", "ROUTENAME": "L ST NW", "ROADTYPE": "1", "SUBBLOCKKEY": "b2ee816b7df51e6bb81764091ef292f2", "BIKELANE_PARKINGLANE_ADJACENT": "IB", "BIKELANE_THROUGHLANE_ADJACENT": "IB", "BIKELANE_POCKETLANE_ADJACENT": null, "BIKELANE_CONTRAFLOW": null, "BIKELANE_CONVENTIONAL": "IB", "BIKELANE_DUAL_PROTECTED": null, "BIKELANE_DUAL_BUFFERED": null, "BIKELANE_PROTECTED": null, "BIKELANE_BUFFERED": null, "SUBBLOCKID": "11053492-11002302_11053492-11053492_47050022", "BLOCKID": "11053492-11002302_11053492-11002402_11053492", "BLOCKKEY": "50fd24e4a29a46b4fd257d59cb9aff27", "QUADRANT": 1.0, "STREETNAME": "L", "STREETTYPE": "ST", "TOTALBIKELANES": 1, "TOTALBIKELANEWIDTH": 5, "WARD_ID": "2", "SMD_ID": "2A06", "ANC_ID": "2A", "OBJECTID": 10434538, "SHAPE.LEN": 0, "LENGTH": 58.62271202 }, "geometry": { "type": "LineString", "coordinates": [ [ -77.050115133992449, 38.903744853233256 ], [ -77.050205369588781, 38.903744373080137 ], [ -77.050218339499864, 38.903744385522359 ], [ -77.050790986939504, 38.9037448225966 ] ] } },
{ "type": "Feature", "properties": { "ROUTEID": "11053492", "ROUTENAME": "L ST NW", "ROADTYPE": "1", "SUBBLOCKKEY": "b101025692e701d31f2e12533aaff19a", "BIKELANE_PARKINGLANE_ADJACENT": "IB", "BIKELANE_THROUGHLANE_ADJACENT": "IB", "BIKELANE_POCKETLANE_ADJACENT": null, "BIKELANE_CONTRAFLOW": null, "BIKELANE_CONVENTIONAL": "IB", "BIKELANE_DUAL_PROTECTED": null, "BIKELANE_DUAL_BUFFERED": null, "BIKELANE_PROTECTED": null, "BIKELANE_BUFFERED": null, "SUBBLOCKID": "11053492-11053492_47050022-11002402_11053492", "BLOCKID": "11053492-11002302_11053492-11002402_11053492", "BLOCKKEY": "50fd24e4a29a46b4fd257d59cb9aff27", "QUADRANT": 1.0, "STREETNAME": "L", "STREETTYPE": "ST", "TOTALBIKELANES": 1, "TOTALBIKELANEWIDTH": 5, "WARD_ID": "2", "SMD_ID": "2A06", "ANC_ID": "2A", "OBJECTID": 10434628, "SHAPE.LEN": 0, "LENGTH": 54.22616875 }, "geometry": { "type": "LineString", "coordinates": [ [ -77.050790986939504, 38.9037448225966 ], [ -77.051181629086628, 38.903745120542432 ], [ -77.051316574821655, 38.903746655823227 ], [ -77.051416115321615, 38.903747792151357 ] ] } },
{ "type": "Feature", "properties": { "ROUTEID": "11053492", "ROUTENAME": "L ST NW", "ROADTYPE": "1", "SUBBLOCKKEY": "6fdbaa8db5035dc7e33f5e96d3809397", "BIKELANE_PARKINGLANE_ADJACENT": "IB", "BIKELANE_THROUGHLANE_ADJACENT": "IB", "BIKELANE_POCKETLANE_ADJACENT": null, "BIKELANE_CONTRAFLOW": null, "BIKELANE_CONVENTIONAL": "IB", "BIKELANE_DUAL_PROTECTED": null, "BIKELANE_DUAL_BUFFERED": null, "BIKELANE_PROTECTED": null, "BIKELANE_BUFFERED": null, "SUBBLOCKID": "11053492-11002402_11053492-11053492_58022202*1", "BLOCKID": "11053492-11002402_11053492-11002502_11053492_11069812", "BLOCKKEY": "d0d83b2a537b53a53ee91684d64ed4bc", "QUADRANT": 1.0, "STREETNAME": "L", "STREETTYPE": "ST", "TOTALBIKELANES": 1, "TOTALBIKELANEWIDTH": 5, "WARD_ID": "2", "SMD_ID": "2A02", "ANC_ID": "2A", "OBJECTID": 10434635, "SHAPE.LEN": 0, "LENGTH": 55.27733656 }, "geometry": { "type": "LineString", "coordinates": [ [ -77.051416115321615, 38.903747792151357 ], [ -77.051526481458339, 38.903749049737499 ], [ -77.051547325703098, 38.90374928376778 ], [ -77.052053381635702, 38.903748086480384 ] ] } },
{ "type": "Feature", "properties": { "ROUTEID": "11053492", "ROUTENAME": "L ST NW", "ROADTYPE": "1", "SUBBLOCKKEY": "b52efac18b9ade7a273367f80ec8e654", "BIKELANE_PARKINGLANE_ADJACENT": null, "BIKELANE_THROUGHLANE_ADJACENT": "IB", "BIKELANE_POCKETLANE_ADJACENT": null, "BIKELANE_CONTRAFLOW": null, "BIKELANE_CONVENTIONAL": "IB", "BIKELANE_DUAL_PROTECTED": null, "BIKELANE_DUAL_BUFFERED": null, "BIKELANE_PROTECTED": null, "BIKELANE_BUFFERED": null, "SUBBLOCKID": "11053492-11002202_11053492_11064222-11002302_11053492", "BLOCKID": "11053492-11002202_11053492_11064222-11002302_11053492", "BLOCKKEY": "b52efac18b9ade7a273367f80ec8e654", "QUADRANT": 1.0, "STREETNAME": "L", "STREETTYPE": "ST", "TOTALBIKELANES": 1, "TOTALBIKELANEWIDTH": 3, "WARD_ID": "2", "SMD_ID": "2A06", "ANC_ID": "2A", "OBJECTID": 10434644, "SHAPE.LEN": 0, "LENGTH": 106.6866894 }, "geometry": { "type": "LineString", "coordinates": [ [ -77.048885554475234, 38.903764318793478 ], [ -77.049302207799968, 38.903750973485998 ], [ -77.049854318867801, 38.903746235003482 ], [ -77.049996191780679, 38.903745480730706 ], [ -77.050115133992449, 38.903744853233256 ] ] } },
{ "type": "Feature", "properties": { "ROUTEID": "11053492", "ROUTENAME": "L ST NW", "ROADTYPE": "1", "SUBBLOCKKEY": "dc67b5d6377046e3ec820abf73573b0c", "BIKELANE_PARKINGLANE_ADJACENT": "IB", "BIKELANE_THROUGHLANE_ADJACENT": "IB", "BIKELANE_POCKETLANE_ADJACENT": null, "BIKELANE_CONTRAFLOW": null, "BIKELANE_CONVENTIONAL": "IB", "BIKELANE_DUAL_PROTECTED": null, "BIKELANE_DUAL_BUFFERED": null, "BIKELANE_PROTECTED": null, "BIKELANE_BUFFERED": null, "SUBBLOCKID": "11053492-11053492_58022202-11002502_11053492_11069812", "BLOCKID": "11053492-11002402_11053492-11002502_11053492_11069812", "BLOCKKEY": "d0d83b2a537b53a53ee91684d64ed4bc", "QUADRANT": 1.0, "STREETNAME": "L", "STREETTYPE": "ST", "TOTALBIKELANES": 1, "TOTALBIKELANEWIDTH": 5, "WARD_ID": "2", "SMD_ID": "2A02", "ANC_ID": "2A", "OBJECTID": 10434650, "SHAPE.LEN": 0, "LENGTH": 60.36933172 }, "geometry": { "type": "LineString", "coordinates": [ [ -77.052640923021414, 38.903746742212192 ], [ -77.052952453806924, 38.903746042904778 ], [ -77.053068829696855, 38.903736134956965 ], [ -77.053109927269247, 38.903732639055526 ], [ -77.053207888977454, 38.903688273369582 ], [ -77.05330541249694, 38.903643943834439 ] ] } },
{ "type": "Feature", "properties": { "ROUTEID": "11053492", "ROUTENAME": "L ST NW", "ROADTYPE": "1", "SUBBLOCKKEY": "a6178ac4652fcf109b10999807a38886", "BIKELANE_PARKINGLANE_ADJACENT": "IB", "BIKELANE_THROUGHLANE_ADJACENT": "IB", "BIKELANE_POCKETLANE_ADJACENT": null, "BIKELANE_CONTRAFLOW": null, "BIKELANE_CONVENTIONAL": "IB", "BIKELANE_DUAL_PROTECTED": null, "BIKELANE_DUAL_BUFFERED": null, "BIKELANE_PROTECTED": null, "BIKELANE_BUFFERED": null, "SUBBLOCKID": "11053492-11053492_58022202*1-11053492_58022202", "BLOCKID": "11053492-11002402_11053492-11002502_11053492_11069812", "BLOCKKEY": "d0d83b2a537b53a53ee91684d64ed4bc", "QUADRANT": 1.0, "STREETNAME": "L", "STREETTYPE": "ST", "TOTALBIKELANES": 1, "TOTALBIKELANEWIDTH": 5, "WARD_ID": "2", "SMD_ID": "2A02", "ANC_ID": "2A", "OBJECTID": 10434675, "SHAPE.LEN": 0, "LENGTH": 50.96274075 }, "geometry": { "type": "LineString", "coordinates": [ [ -77.052053381635702, 38.903748086480384 ], [ -77.052247814554221, 38.903747621335064 ], [ -77.052640923021414, 38.903746742212192 ] ] } },
{ "type": "Feature", "properties": { "ROUTEID": "11057852", "ROUTENAME": "M ST NW", "ROADTYPE": "1", "SUBBLOCKKEY": "0de26fc29b65b4660867ecebcc7129d6", "BIKELANE_PARKINGLANE_ADJACENT": null, "BIKELANE_THROUGHLANE_ADJACENT": null, "BIKELANE_POCKETLANE_ADJACENT": null, "BIKELANE_CONTRAFLOW": null, "BIKELANE_CONVENTIONAL": null, "BIKELANE_DUAL_PROTECTED": null, "BIKELANE_DUAL_BUFFERED": null, "BIKELANE_PROTECTED": null, "BIKELANE_BUFFERED": "OB", "SUBBLOCKID": "11057852-11002602_11057852-11057852_61076772", "BLOCKID": "11057852-11002602_11057852-11002802_11057852", "BLOCKKEY": "bdaf50c005e0a279de143d1da9e9fc9e", "QUADRANT": 1.0, "STREETNAME": "M", "STREETTYPE": "ST", "TOTALBIKELANES": 1, "TOTALBIKELANEWIDTH": 5, "WARD_ID": "2", "SMD_ID": "2A02", "ANC_ID": "2A", "OBJECTID": 10434835, "SHAPE.LEN": 0, "LENGTH": 93.22155783 }, "geometry": { "type": "LineString", "coordinates": [ [ -77.054751555028332, 38.905259067584019 ], [ -77.054855305551854, 38.9052598837172 ], [ -77.054978540285987, 38.90526085274108 ], [ -77.055042872764815, 38.905261362950149 ], [ -77.055311153744228, 38.905261416410326 ], [ -77.055558567015169, 38.905261299013034 ], [ -77.055726464550844, 38.905261318139338 ], [ -77.055826294586453, 38.905261333536764 ] ] } },
{ "type": "Feature", "properties": { "ROUTEID": "11058302", "ROUTENAME": "MADISON PL NW", "ROADTYPE": "1", "SUBBLOCKKEY": "8c7d889c3ca69e1691205ae0b7aa6607", "BIKELANE_PARKINGLANE_ADJACENT": null, "BIKELANE_THROUGHLANE_ADJACENT": "IB", "BIKELANE_POCKETLANE_ADJACENT": null, "BIKELANE_CONTRAFLOW": null, "BIKELANE_CONVENTIONAL": "IB", "BIKELANE_DUAL_PROTECTED": null, "BIKELANE_DUAL_BUFFERED": null, "BIKELANE_PROTECTED": null, "BIKELANE_BUFFERED": null, "SUBBLOCKID": "11058302-11031922_11058302_11069812-11042442_11058302_11089442", "BLOCKID": "11058302-11031922_11058302_11069812-11042442_11058302_11089442", "BLOCKKEY": "8c7d889c3ca69e1691205ae0b7aa6607", "QUADRANT": 1.0, "STREETNAME": "MADISON", "STREETTYPE": "PL", "TOTALBIKELANES": 1, "TOTALBIKELANEWIDTH": 5, "WARD_ID": "2", "SMD_ID": "2A07", "ANC_ID": "2A", "OBJECTID": 10435114, "SHAPE.LEN": 0, "LENGTH": 160.34690711 }, "geometry": { "type": "LineString", "coordinates": [ [ -77.03511974235326, 38.898768529894213 ], [ -77.035147235313474, 38.89888284675834 ], [ -77.03514810478741, 38.898939527114948 ], [ -77.035150235204242, 38.89902850207131 ], [ -77.035151482304073, 38.899453786474744 ], [ -77.035152372386236, 38.899856369883075 ], [ -77.035154254648859, 38.90007332668339 ], [ -77.035131323085508, 38.90020979223037 ] ] } },
{ "type": "Feature", "properties": { "ROUTEID": "11064672", "ROUTENAME": "NEW YORK AVE NW", "ROADTYPE": "1", "SUBBLOCKKEY": "d7960ecf997b9026a1e6531bd78daf59", "BIKELANE_PARKINGLANE_ADJACENT": "BD", "BIKELANE_THROUGHLANE_ADJACENT": "BD", "BIKELANE_POCKETLANE_ADJACENT": null, "BIKELANE_CONTRAFLOW": null, "BIKELANE_CONVENTIONAL": "BD", "BIKELANE_DUAL_PROTECTED": null, "BIKELANE_DUAL_BUFFERED": null, "BIKELANE_PROTECTED": null, "BIKELANE_BUFFERED": null, "SUBBLOCKID": "11064672-11001402_11064672-11001502_11064672_11069812", "BLOCKID": "11064672-11001402_11064672-11001502_11064672_11069812", "BLOCKKEY": "d7960ecf997b9026a1e6531bd78daf59", "QUADRANT": 1.0, "STREETNAME": "NEW YORK", "STREETTYPE": "AVE", "TOTALBIKELANES": 2, "TOTALBIKELANEWIDTH": 10, "WARD_ID": "2", "SMD_ID": "2C01", "ANC_ID": "2C", "OBJECTID": 10435943, "SHAPE.LEN": 0, "LENGTH": 161.91154426 }, "geometry": { "type": "LineString", "coordinates": [ [ -77.031954310670969, 38.899400456440951 ], [ -77.033538995819299, 38.898856961104585 ], [ -77.033644076446876, 38.898789584367073 ] ] } },
{ "type": "Feature", "properties": { "ROUTEID": "11069812", "ROUTENAME": "PENNSYLVANIA AVE NW", "ROADTYPE": "1", "SUBBLOCKKEY": "3f9140152815579b50966c98480ae555", "BIKELANE_PARKINGLANE_ADJACENT": null, "BIKELANE_THROUGHLANE_ADJACENT": null, "BIKELANE_POCKETLANE_ADJACENT": null, "BIKELANE_CONTRAFLOW": null, "BIKELANE_CONVENTIONAL": null, "BIKELANE_DUAL_PROTECTED": null, "BIKELANE_DUAL_BUFFERED": null, "BIKELANE_PROTECTED": "OB", "BIKELANE_BUFFERED": "IB", "SUBBLOCKID": "11069812-11069812_58020582-11000402_11069812", "BLOCKID": "11069812-11025352_11069812-11000402_11069812", "BLOCKKEY": "057b8ed92bdec62c0d13d869ad803168", "QUADRANT": 1.0, "STREETNAME": "PENNSYLVANIA", "STREETTYPE": "AVE", "TOTALBIKELANES": 2, "TOTALBIKELANEWIDTH": 12, "WARD_ID": "2", "SMD_ID": "2C03", "ANC_ID": "2C", "OBJECTID": 10436510, "SHAPE.LEN": 0, "LENGTH": 28.97621948 }, "geometry": { "type": "LineString", "coordinates": [ [ -77.017252207666829, 38.892029780953443 ], [ -77.01756694833999, 38.892117160300174 ] ] } },
{ "type": "Feature", "properties": { "ROUTEID": "11069812", "ROUTENAME": "PENNSYLVANIA AVE NW", "ROADTYPE": "1", "SUBBLOCKKEY": "920d879e0ef81b3f2c9c0f8e975b0a72", "BIKELANE_PARKINGLANE_ADJACENT": null, "BIKELANE_THROUGHLANE_ADJACENT": null, "BIKELANE_POCKETLANE_ADJACENT": null, "BIKELANE_CONTRAFLOW": null, "BIKELANE_CONVENTIONAL": null, "BIKELANE_DUAL_PROTECTED": "IB", "BIKELANE_DUAL_BUFFERED": null, "BIKELANE_PROTECTED": null, "BIKELANE_BUFFERED": null, "SUBBLOCKID": "11069812-11025352_11069812*1-11000602_11069812", "BLOCKID": "11069812-11025352_11069812*1-11000602_11069812", "BLOCKKEY": "920d879e0ef81b3f2c9c0f8e975b0a72", "QUADRANT": 1.0, "STREETNAME": "PENNSYLVANIA", "STREETTYPE": "AVE", "TOTALBIKELANES": 2, "TOTALBIKELANEWIDTH": 12, "WARD_ID": "2", "SMD_ID": "2C03", "ANC_ID": "2C", "OBJECTID": 10436511, "SHAPE.LEN": 0, "LENGTH": 121.07068328 }, "geometry": { "type": "LineString", "coordinates": [ [ -77.018586901220644, 38.892400820236666 ], [ -77.019901723030415, 38.892766451620233 ] ] } },
{ "type": "Feature", "properties": { "ROUTEID": "11069812", "ROUTENAME": "PENNSYLVANIA AVE NW", "ROADTYPE": "1", "SUBBLOCKKEY": "8c8036329ab4671796ea82ed77de03c2", "BIKELANE_PARKINGLANE_ADJACENT": null, "BIKELANE_THROUGHLANE_ADJACENT": null, "BIKELANE_POCKETLANE_ADJACENT": null, "BIKELANE_CONTRAFLOW": null, "BIKELANE_CONVENTIONAL": null, "BIKELANE_DUAL_PROTECTED": null, "BIKELANE_DUAL_BUFFERED": null, "BIKELANE_PROTECTED": "OB", "BIKELANE_BUFFERED": "IB", "SUBBLOCKID": "11069812-11025352_11069812-11069812_58020582", "BLOCKID": "11069812-11025352_11069812-11000402_11069812", "BLOCKKEY": "057b8ed92bdec62c0d13d869ad803168", "QUADRANT": 1.0, "STREETNAME": "PENNSYLVANIA", "STREETTYPE": "AVE", "TOTALBIKELANES": 2, "TOTALBIKELANEWIDTH": 12, "WARD_ID": "2", "SMD_ID": "2C03", "ANC_ID": "2C", "OBJECTID": 10436513, "SHAPE.LEN": 0, "LENGTH": 79.35889514 }, "geometry": { "type": "LineString", "coordinates": [ [ -77.016390228171318, 38.891790453523917 ], [ -77.017252207666829, 38.892029780953443 ] ] } },
{ "type": "Feature", "properties": { "ROUTEID": "11069812", "ROUTENAME": "PENNSYLVANIA AVE NW", "ROADTYPE": "1", "SUBBLOCKKEY": "ff73df3dd397dc946a613de69f6f5f5a", "BIKELANE_PARKINGLANE_ADJACENT": "IB", "BIKELANE_THROUGHLANE_ADJACENT": null, "BIKELANE_POCKETLANE_ADJACENT": null, "BIKELANE_CONTRAFLOW": null, "BIKELANE_CONVENTIONAL": null, "BIKELANE_DUAL_PROTECTED": "IB", "BIKELANE_DUAL_BUFFERED": null, "BIKELANE_PROTECTED": null, "BIKELANE_BUFFERED": null, "SUBBLOCKID": "11069812-11000302_11069812-11025352_11069812", "BLOCKID": "11069812-11000302_11069812-11025352_11069812", "BLOCKKEY": "ff73df3dd397dc946a613de69f6f5f5a", "QUADRANT": 1.0, "STREETNAME": "PENNSYLVANIA", "STREETTYPE": "AVE", "TOTALBIKELANES": 2, "TOTALBIKELANEWIDTH": 12, "WARD_ID": "2", "SMD_ID": "2C03", "ANC_ID": "2C", "OBJECTID": 10436514, "SHAPE.LEN": 0, "LENGTH": 111.09430031 }, "geometry": { "type": "LineString", "coordinates": [ [ -77.015183558814485, 38.891455415036013 ], [ -77.016390228171318, 38.891790453523917 ] ] } },
{ "type": "Feature", "properties": { "ROUTEID": "11069812", "ROUTENAME": "PENNSYLVANIA AVE NW", "ROADTYPE": "1", "SUBBLOCKKEY": "e8c879cd76e0126ae96829af2957af9e", "BIKELANE_PARKINGLANE_ADJACENT": null, "BIKELANE_THROUGHLANE_ADJACENT": null, "BIKELANE_POCKETLANE_ADJACENT": null, "BIKELANE_CONTRAFLOW": null, "BIKELANE_CONVENTIONAL": null, "BIKELANE_DUAL_PROTECTED": null, "BIKELANE_DUAL_BUFFERED": null, "BIKELANE_PROTECTED": "IB", "BIKELANE_BUFFERED": "IB", "SUBBLOCKID": "11069812-11000402_11069812-11025352_11069812*1", "BLOCKID": "11069812-11000402_11069812-11025352_11069812*1", "BLOCKKEY": "e8c879cd76e0126ae96829af2957af9e", "QUADRANT": 1.0, "STREETNAME": "PENNSYLVANIA", "STREETTYPE": "AVE", "TOTALBIKELANES": 2, "TOTALBIKELANEWIDTH": 12, "WARD_ID": "2", "SMD_ID": "2C03", "ANC_ID": "2C", "OBJECTID": 10436518, "SHAPE.LEN": 0, "LENGTH": 93.92026559 }, "geometry": { "type": "LineString", "coordinates": [ [ -77.01756694833999, 38.892117160300174 ], [ -77.018586901220644, 38.892400820236666 ] ] } },
{ "type": "Feature", "properties": { "ROUTEID": "11069812", "ROUTENAME": "PENNSYLVANIA AVE NW", "ROADTYPE": "1", "SUBBLOCKKEY": "feb3e6ec7432b5b77d93e15c2aab4d41", "BIKELANE_PARKINGLANE_ADJACENT": null, "BIKELANE_THROUGHLANE_ADJACENT": null, "BIKELANE_POCKETLANE_ADJACENT": null, "BIKELANE_CONTRAFLOW": null, "BIKELANE_CONVENTIONAL": null, "BIKELANE_DUAL_PROTECTED": "IB", "BIKELANE_DUAL_BUFFERED": null, "BIKELANE_PROTECTED": null, "BIKELANE_BUFFERED": null, "SUBBLOCKID": "11069812-11001102_11069812-11001202_11069812", "BLOCKID": "11069812-11001102_11069812-11001202_11069812", "BLOCKKEY": "feb3e6ec7432b5b77d93e15c2aab4d41", "QUADRANT": 1.0, "STREETNAME": "PENNSYLVANIA", "STREETTYPE": "AVE", "TOTALBIKELANES": 2, "TOTALBIKELANEWIDTH": 12, "WARD_ID": "2", "SMD_ID": "2C03", "ANC_ID": "2C", "OBJECTID": 10436522, "SHAPE.LEN": 0, "LENGTH": 95.70379251 }, "geometry": { "type": "LineString", "coordinates": [ [ -77.027055800130924, 38.894744341771371 ], [ -77.028098329153337, 38.895026363870876 ] ] } },
{ "type": "Feature", "properties": { "ROUTEID": "11069812", "ROUTENAME": "PENNSYLVANIA AVE NW", "ROADTYPE": "1", "SUBBLOCKKEY": "80178b1f0127bb84ff5f84a33ddbe0c0", "BIKELANE_PARKINGLANE_ADJACENT": null, "BIKELANE_THROUGHLANE_ADJACENT": null, "BIKELANE_POCKETLANE_ADJACENT": null, "BIKELANE_CONTRAFLOW": null, "BIKELANE_CONVENTIONAL": null, "BIKELANE_DUAL_PROTECTED": "IB", "BIKELANE_DUAL_BUFFERED": null, "BIKELANE_PROTECTED": null, "BIKELANE_BUFFERED": null, "SUBBLOCKID": "11069812-11000702_11069812-11000902_11069812", "BLOCKID": "11069812-11000702_11069812-11000902_11069812", "BLOCKKEY": "80178b1f0127bb84ff5f84a33ddbe0c0", "QUADRANT": 1.0, "STREETNAME": "PENNSYLVANIA", "STREETTYPE": "AVE", "TOTALBIKELANES": 2, "TOTALBIKELANEWIDTH": 12, "WARD_ID": "2", "SMD_ID": "2C03", "ANC_ID": "2C", "OBJECTID": 10436524, "SHAPE.LEN": 0, "LENGTH": 189.7260934 }, "geometry": { "type": "LineString", "coordinates": [ [ -77.021921353673406, 38.893302556585326 ], [ -77.023113796877695, 38.893651887531433 ], [ -77.023349780289294, 38.893719853793932 ], [ -77.023903571172895, 38.893863623469144 ], [ -77.023977432936974, 38.89388435460728 ] ] } },
{ "type": "Feature", "properties": { "ROUTEID": "11069812", "ROUTENAME": "PENNSYLVANIA AVE NW", "ROADTYPE": "1", "SUBBLOCKKEY": "c144fffdc73e5ce2d2603140ec38da91", "BIKELANE_PARKINGLANE_ADJACENT": null, "BIKELANE_THROUGHLANE_ADJACENT": null, "BIKELANE_POCKETLANE_ADJACENT": null, "BIKELANE_CONTRAFLOW": null, "BIKELANE_CONVENTIONAL": null, "BIKELANE_DUAL_PROTECTED": null, "BIKELANE_DUAL_BUFFERED": null, "BIKELANE_PROTECTED": "OB", "BIKELANE_BUFFERED": "IB", "SUBBLOCKID": "11069812-11001352_11069812-11001402_11069812*1", "BLOCKID": "11069812-11001352_11069812-11001402_11069812*1", "BLOCKKEY": "c144fffdc73e5ce2d2603140ec38da91", "QUADRANT": 1.0, "STREETNAME": "PENNSYLVANIA", "STREETTYPE": "AVE", "TOTALBIKELANES": 2, "TOTALBIKELANEWIDTH": 12, "WARD_ID": "2", "SMD_ID": "2C03", "ANC_ID": "2C", "OBJECTID": 10436525, "SHAPE.LEN": 0, "LENGTH": 102.87040527000001 }, "geometry": { "type": "LineString", "coordinates": [ [ -77.030771533262183, 38.895511763778387 ], [ -77.031957350241058, 38.895506427712448 ] ] } },
{ "type": "Feature", "properties": { "ROUTEID": "11069812", "ROUTENAME": "PENNSYLVANIA AVE NW", "ROADTYPE": "1", "SUBBLOCKKEY": "d9f0254bec41872249cfe97c1c909e87", "BIKELANE_PARKINGLANE_ADJACENT": null, "BIKELANE_THROUGHLANE_ADJACENT": null, "BIKELANE_POCKETLANE_ADJACENT": null, "BIKELANE_CONTRAFLOW": null, "BIKELANE_CONVENTIONAL": null, "BIKELANE_DUAL_PROTECTED": "IB", "BIKELANE_DUAL_BUFFERED": null, "BIKELANE_PROTECTED": null, "BIKELANE_BUFFERED": null, "SUBBLOCKID": "11069812-11001202_11069812-11001302_11069812", "BLOCKID": "11069812-11001202_11069812-11001302_11069812", "BLOCKKEY": "d9f0254bec41872249cfe97c1c909e87", "QUADRANT": 1.0, "STREETNAME": "PENNSYLVANIA", "STREETTYPE": "AVE", "TOTALBIKELANES": 2, "TOTALBIKELANEWIDTH": 12, "WARD_ID": "2", "SMD_ID": "2C03", "ANC_ID": "2C", "OBJECTID": 10436529, "SHAPE.LEN": 0, "LENGTH": 141.55392754 }, "geometry": { "type": "LineString", "coordinates": [ [ -77.028098329153337, 38.895026363870876 ], [ -77.028812428814661, 38.895228076457151 ], [ -77.029635384989604, 38.895454394991411 ] ] } },
{ "type": "Feature", "properties": { "ROUTEID": "11069812", "ROUTENAME": "PENNSYLVANIA AVE NW", "ROADTYPE": "1", "SUBBLOCKKEY": "a8ffc21a1c1664cfec52a98dfb20e4b4", "BIKELANE_PARKINGLANE_ADJACENT": null, "BIKELANE_THROUGHLANE_ADJACENT": null, "BIKELANE_POCKETLANE_ADJACENT": null, "BIKELANE_CONTRAFLOW": null, "BIKELANE_CONVENTIONAL": null, "BIKELANE_DUAL_PROTECTED": "IB", "BIKELANE_DUAL_BUFFERED": null, "BIKELANE_PROTECTED": null, "BIKELANE_BUFFERED": null, "SUBBLOCKID": "11069812-11000602_11069812-11000702_11069812", "BLOCKID": "11069812-11000602_11069812-11000702_11069812", "BLOCKKEY": "a8ffc21a1c1664cfec52a98dfb20e4b4", "QUADRANT": 1.0, "STREETNAME": "PENNSYLVANIA", "STREETTYPE": "AVE", "TOTALBIKELANES": 2, "TOTALBIKELANEWIDTH": 12, "WARD_ID": "2", "SMD_ID": "2C03", "ANC_ID": "2C", "OBJECTID": 10436531, "SHAPE.LEN": 0, "LENGTH": 185.06529654 }, "geometry": { "type": "LineString", "coordinates": [ [ -77.019901723030415, 38.892766451620233 ], [ -77.020707309125783, 38.892993646851437 ], [ -77.020751000456457, 38.893006575119173 ], [ -77.021921353673406, 38.893302556585326 ] ] } },
{ "type": "Feature", "properties": { "ROUTEID": "11069812", "ROUTENAME": "PENNSYLVANIA AVE NW", "ROADTYPE": "1", "SUBBLOCKKEY": "dad9cbba147219f2f1258a414f6037c0", "BIKELANE_PARKINGLANE_ADJACENT": null, "BIKELANE_THROUGHLANE_ADJACENT": null, "BIKELANE_POCKETLANE_ADJACENT": null, "BIKELANE_CONTRAFLOW": null, "BIKELANE_CONVENTIONAL": null, "BIKELANE_DUAL_PROTECTED": "IB", "BIKELANE_DUAL_BUFFERED": null, "BIKELANE_PROTECTED": null, "BIKELANE_BUFFERED": null, "SUBBLOCKID": "11069812-11001402_11069812*1-11001502_11031332_11069812", "BLOCKID": "11069812-11001402_11069812*1-11001502_11031332_11069812", "BLOCKKEY": "dad9cbba147219f2f1258a414f6037c0", "QUADRANT": 1.0, "STREETNAME": "PENNSYLVANIA", "STREETTYPE": "AVE", "TOTALBIKELANES": 2, "TOTALBIKELANEWIDTH": 12, "WARD_ID": "2", "SMD_ID": "2C03", "ANC_ID": "2C", "OBJECTID": 10436536, "SHAPE.LEN": 0, "LENGTH": 146.85546718000001 }, "geometry": { "type": "LineString", "coordinates": [ [ -77.031957350241058, 38.895506427712448 ], [ -77.032559317184294, 38.895511846659545 ], [ -77.033077478008238, 38.895514043254039 ], [ -77.033410391031509, 38.8955133179211 ], [ -77.033421618225304, 38.895512116596329 ], [ -77.033623753789001, 38.895490555611417 ], [ -77.033647729171207, 38.895486846268277 ] ] } },
{ "type": "Feature", "properties": { "ROUTEID": "11069812", "ROUTENAME": "PENNSYLVANIA AVE NW", "ROADTYPE": "1", "SUBBLOCKKEY": "5e7b26564c66feb926cbf3e621c3a370", "BIKELANE_PARKINGLANE_ADJACENT": null, "BIKELANE_THROUGHLANE_ADJACENT": null, "BIKELANE_POCKETLANE_ADJACENT": null, "BIKELANE_CONTRAFLOW": null, "BIKELANE_CONVENTIONAL": null, "BIKELANE_DUAL_PROTECTED": "IB", "BIKELANE_DUAL_BUFFERED": null, "BIKELANE_PROTECTED": null, "BIKELANE_BUFFERED": null, "SUBBLOCKID": "11069812-11001002_11069812-11001102_11069812", "BLOCKID": "11069812-11001002_11069812-11001102_11069812", "BLOCKKEY": "5e7b26564c66feb926cbf3e621c3a370", "QUADRANT": 1.0, "STREETNAME": "PENNSYLVANIA", "STREETTYPE": "AVE", "TOTALBIKELANES": 2, "TOTALBIKELANEWIDTH": 12, "WARD_ID": "2", "SMD_ID": "2C03", "ANC_ID": "2C", "OBJECTID": 10436539, "SHAPE.LEN": 0, "LENGTH": 96.85005855 }, "geometry": { "type": "LineString", "coordinates": [ [ -77.026004099719472, 38.894451610454702 ], [ -77.027055800130924, 38.894744341771371 ] ] } },
{ "type": "Feature", "properties": { "ROUTEID": "11069812", "ROUTENAME": "PENNSYLVANIA AVE NW", "ROADTYPE": "1", "SUBBLOCKKEY": "420d9792fd7f9608ae25343c7b3041b4", "BIKELANE_PARKINGLANE_ADJACENT": null, "BIKELANE_THROUGHLANE_ADJACENT": null, "BIKELANE_POCKETLANE_ADJACENT": null, "BIKELANE_CONTRAFLOW": null, "BIKELANE_CONVENTIONAL": null, "BIKELANE_DUAL_PROTECTED": "IB", "BIKELANE_DUAL_BUFFERED": null, "BIKELANE_PROTECTED": null, "BIKELANE_BUFFERED": null, "SUBBLOCKID": "11069812-11000902_11069812-11001002_11069812", "BLOCKID": "11069812-11000902_11069812-11001002_11069812", "BLOCKKEY": "420d9792fd7f9608ae25343c7b3041b4", "QUADRANT": 1.0, "STREETNAME": "PENNSYLVANIA", "STREETTYPE": "AVE", "TOTALBIKELANES": 2, "TOTALBIKELANEWIDTH": 12, "WARD_ID": "2", "SMD_ID": "2C03", "ANC_ID": "2C", "OBJECTID": 10436540, "SHAPE.LEN": 0, "LENGTH": 186.75214328000001 }, "geometry": { "type": "LineString", "coordinates": [ [ -77.023977432936974, 38.89388435460728 ], [ -77.026004099719472, 38.894451610454702 ] ] } },
{ "type": "Feature", "properties": { "ROUTEID": "11069812", "ROUTENAME": "PENNSYLVANIA AVE NW", "ROADTYPE": "1", "SUBBLOCKKEY": "dd3d4367e464678dd2073fe505a9b493", "BIKELANE_PARKINGLANE_ADJACENT": null, "BIKELANE_THROUGHLANE_ADJACENT": null, "BIKELANE_POCKETLANE_ADJACENT": null, "BIKELANE_CONTRAFLOW": null, "BIKELANE_CONVENTIONAL": null, "BIKELANE_DUAL_PROTECTED": "IB", "BIKELANE_DUAL_BUFFERED": null, "BIKELANE_PROTECTED": null, "BIKELANE_BUFFERED": null, "SUBBLOCKID": "11069812-11001302_11069812-11001352_11069812", "BLOCKID": "11069812-11001302_11069812-11001352_11069812", "BLOCKKEY": "dd3d4367e464678dd2073fe505a9b493", "QUADRANT": 1.0, "STREETNAME": "PENNSYLVANIA", "STREETTYPE": "AVE", "TOTALBIKELANES": 2, "TOTALBIKELANEWIDTH": 12, "WARD_ID": "2", "SMD_ID": "2C03", "ANC_ID": "2C", "OBJECTID": 10436549, "SHAPE.LEN": 0, "LENGTH": 99.41057799 }, "geometry": { "type": "LineString", "coordinates": [ [ -77.029635384989604, 38.895454394991411 ], [ -77.029887824993352, 38.895509732135558 ], [ -77.029973705144172, 38.895510917251102 ], [ -77.030210019710751, 38.895514279552266 ], [ -77.030771533262183, 38.895511763778387 ] ] } }
]
}
