{
"type": "FeatureCollection",
"name": "corridor_buffer",
"crs": { "type": "name", "properties": { "name": "urn:ogc:def:crs:OGC:1.3:CRS84" } },
"features": [
{ "type": "Feature", "properties": { "name": "Pennsylvania Avenue NW" }, "geometry": { "type": "MultiPolygon", "coordinates": [ [ [ [ -77.034773151409937, 38.895500752017774 ], [ -77.034773313057585, 38.895501917729348 ], [ -77.034774418167061, 38.895590314456015 ], [ -77.034764430628655, 38.895678370175631 ], [ -77.034743446587072, 38.895765236861756 ], [ -77.034711668091262, 38.895850077935968 ], [ -77.03466940115014, 38.895932076324691 ], [ -77.034633605687759, 38.895985662496877 ], [ -77.034641166797428, 38.895995742487393 ], [ -77.03468853227011, 38.896076021130412 ], [ -77.034725600602172, 38.896159541238724 ], [ -77.0347520147739, 38.896245498478734 ], [ -77.034767520366373, 38.896333065043422 ], [ -77.034771968013047, 38.896421397624295 ], [ -77.03476531483976, 38.896509645532639 ], [ -77.034747624879188, 38.896596958892097 ], [ -77.034719068455757, 38.896682496823438 ], [ -77.034679920546836, 38.896765435542825 ], [ -77.034630558136001, 38.896844976295561 ], [ -77.034571456583677, 38.896920353048941 ], [ -77.034503185050156, 38.896990839869943 ], [ -77.034426401015097, 38.897055757916974 ], [ -77.034341843946123, 38.897114481977994 ], [ -77.034250328177407, 38.897166446492292 ], [ -77.034152735067238, 38.89721115099772 ], [ -77.034050004509467, 38.897248164951051 ], [ -77.033943125881166, 38.897277131874901 ], [ -77.033833128513365, 38.897297772791219 ], [ -77.033721071776867, 38.897309888908502 ], [ -77.033608034878526, 38.897313363536554 ], [ -77.033449136421297, 38.897312149920381 ], [ -77.033187236659117, 38.897314163134993 ], [ -77.033118407192418, 38.897313085613376 ], [ -77.033036406156, 38.897309885601139 ], [ -77.032949123072555, 38.897303873830808 ], [ -77.03287432214124, 38.897296473763824 ], [ -77.032751206806722, 38.897278943232116 ], [ -77.03267890595383, 38.897265443090511 ], [ -77.032619750393067, 38.897253090829324 ], [ -77.032550549610534, 38.897237090658123 ], [ -77.032487566516735, 38.897220975526004 ], [ -77.032381865390732, 38.89719127520609 ], [ -77.03237216582383, 38.897188511383426 ], [ -77.031828977582848, 38.897031574951839 ], [ -77.031827973094607, 38.897031405623828 ], [ -77.031803611710245, 38.897028141782698 ], [ -77.031800722507057, 38.897027935411913 ], [ -77.031750268689791, 38.897026809879073 ], [ -77.030483522029229, 38.897027007638663 ], [ -77.030479649113715, 38.897027003138021 ], [ -77.02984219981947, 38.897025423802027 ], [ -77.029707797845617, 38.897033952609469 ], [ -77.029594731488075, 38.897036775478263 ], [ -77.029481855512117, 38.897030924240902 ], [ -77.029370257016069, 38.897016455249009 ], [ -77.029261010793817, 38.896993507850972 ], [ -77.029155168982541, 38.896962303049797 ], [ -77.029053750928526, 38.896923141374444 ], [ -77.028957733369211, 38.896876399985224 ], [ -77.028868041025575, 38.896822529041017 ], [ -77.028785537695867, 38.896762047363538 ], [ -77.028711017936274, 38.896695537440216 ], [ -77.028645199408786, 38.896623639813846 ], [ -77.02858871596986, 38.896547046913263 ], [ -77.028542111566466, 38.896466496384292 ], [ -77.028505834998384, 38.896382763985208 ], [ -77.028480235596959, 38.896296656115304 ], [ -77.028465559862127, 38.896209002048437 ], [ -77.028463608828503, 38.896161260025202 ], [ -77.028112471573252, 38.896072317510743 ], [ -77.028067545747078, 38.89606013195025 ], [ -77.027874546801556, 38.896004271457812 ], [ -77.027731124765069, 38.895964333500345 ], [ -77.027541077031529, 38.89591250229649 ], [ -77.027186176123067, 38.89581551093994 ], [ -77.0271792482866, 38.895813598218503 ], [ -77.026870950491258, 38.89572761442615 ], [ -77.026757865210101, 38.895696808100354 ], [ -77.026675689924261, 38.895674388015621 ], [ -77.026550137875603, 38.895640888049279 ], [ -77.026535158085167, 38.895636800938625 ], [ -77.026471325849428, 38.895618998726768 ], [ -77.026124562160632, 38.895522889711565 ], [ -77.025821879733613, 38.895440401936831 ], [ -77.025616239531672, 38.895386091082962 ], [ -77.025589477388522, 38.89537785889145 ], [ -77.025562238013137, 38.89537064567768 ], [ -77.025415334237394, 38.895325350341068 ], [ -77.02507233938934, 38.895231600885104 ], [ -77.025065497110631, 38.895229711787827 ], [ -77.023762642988558, 38.894866386254094 ], [ -77.023604821827163, 38.894823817974341 ], [ -77.023600110390959, 38.894822341260664 ], [ -77.023595249096189, 38.89482119907457 ], [ -77.023495048023975, 38.894793398775036 ], [ -77.023465236269658, 38.894784764027598 ], [ -77.023387478538169, 38.894761283924943 ], [ -77.023046164000192, 38.894668878069709 ], [ -77.023037319214765, 38.894666451936182 ], [ -77.021712374798284, 38.894298273232607 ], [ -77.021557404963374, 38.894255953217957 ], [ -77.021409794908706, 38.894220262429279 ], [ -77.02134677602281, 38.894203451570661 ], [ -77.020960984599952, 38.894090713319784 ], [ -77.019713526268447, 38.89374480359934 ], [ -77.019528562939982, 38.893693569153179 ], [ -77.0193422036469, 38.893641963496705 ], [ -77.018278282530972, 38.893347840574911 ], [ -77.018268174429807, 38.893345004638839 ], [ -77.018157873261018, 38.893313604300431 ], [ -77.018157328055338, 38.893313424950613 ], [ -77.018156763160007, 38.893313287774411 ], [ -77.018044361970425, 38.893281187428464 ], [ -77.018037261423601, 38.893278844937129 ], [ -77.018029932479692, 38.89327698093669 ], [ -77.017998126098504, 38.893267519082833 ], [ -77.017615677807953, 38.893161240514679 ], [ -77.017234668035826, 38.893056448914358 ], [ -77.017119061911288, 38.89302954449618 ], [ -77.016993461519917, 38.893002380204223 ], [ -77.016921943350781, 38.892984938224835 ], [ -77.016759841604198, 38.892940837749684 ], [ -77.016011277435993, 38.89273654777886 ], [ -77.016007226282852, 38.892735264614998 ], [ -77.016003043192711, 38.892734273152477 ], [ -77.015823841280849, 38.892684172612526 ], [ -77.0158212148541, 38.892683322548983 ], [ -77.015818498556115, 38.892682667297059 ], [ -77.015708996039322, 38.892651576400098 ], [ -77.015001491300083, 38.892453574689675 ], [ -77.01492691182392, 38.89243038271033 ], [ -77.014757861909516, 38.892372406609482 ], [ -77.014589861375981, 38.892318068632747 ], [ -77.014577459346043, 38.89231439738348 ], [ -77.012409403719744, 38.891713435743497 ], [ -77.012346508610889, 38.891702638864871 ], [ -77.012296591585553, 38.891693153874535 ], [ -77.012135489722482, 38.891659553517449 ], [ -77.012027761385781, 38.891632595432057 ], [ -77.011923932961935, 38.891597514895174 ], [ -77.011825004404628, 38.891554649762369 ], [ -77.011731928472912, 38.89150441286121 ], [ -77.011645601554747, 38.89144728801498 ], [ -77.011566855033749, 38.891383825382661 ], [ -77.011496447282042, 38.891314636160018 ], [ -77.011435056356916, 38.8912403866928 ], [ -77.011383273470869, 38.891161792058924 ], [ -77.011341597298681, 38.891079609181205 ], [ -77.011310429175666, 38.890994629537389 ], [ -77.011290069233723, 38.890907671537235 ], [ -77.011280713512264, 38.89081957264046 ], [ -77.011282452071683, 38.890731181291315 ], [ -77.01129526812754, 38.890643348747389 ], [ -77.011319038213827, 38.8905569208816 ], [ -77.011353533373551, 38.890472730036016 ], [ -77.01139508677106, 38.890397614884876 ], [ -77.011399916176572, 38.890377069180481 ], [ -77.011431159833464, 38.89029210654212 ], [ -77.011472908754854, 38.890209946369644 ], [ -77.011524760844907, 38.890131379900303 ], [ -77.01158621671469, 38.890057163759863 ], [ -77.011656684492465, 38.889988012676241 ], [ -77.011735485524412, 38.889924592596984 ], [ -77.011821860910956, 38.88986751427624 ], [ -77.011914978815327, 38.889817327393601 ], [ -77.012013942474539, 38.889774515260982 ], [ -77.012117798835078, 38.889739490168516 ], [ -77.012225547730651, 38.889712589414742 ], [ -77.012336151513139, 38.889694072058504 ], [ -77.012448545044649, 38.88968411642454 ], [ -77.012561645953767, 38.889682818386483 ], [ -77.012674365057975, 38.889690190443524 ], [ -77.012785616851488, 38.88970616160033 ], [ -77.012894329957618, 38.889730578050539 ], [ -77.01299945744536, 38.889763204657918 ], [ -77.01309998691039, 38.889803727220453 ], [ -77.013194950223976, 38.889851755496068 ], [ -77.013296852838522, 38.889909026404105 ], [ -77.0150891442551, 38.890408419838863 ], [ -77.015332702995408, 38.890464482629 ], [ -77.015541848257968, 38.89051247830303 ], [ -77.015559566440103, 38.890517294076304 ], [ -77.015577650656581, 38.890521191185066 ], [ -77.015760648648524, 38.890568290678225 ], [ -77.015846855634663, 38.890593502257687 ], [ -77.015872311403143, 38.890601866939626 ], [ -77.016490538400475, 38.890772762703662 ], [ -77.016827612058464, 38.890865380689419 ], [ -77.016830849512388, 38.890866412357987 ], [ -77.016834194667581, 38.890867206919104 ], [ -77.016913093826432, 38.890889306680933 ], [ -77.016913372195376, 38.890889396928962 ], [ -77.01691366049684, 38.890889465536361 ], [ -77.017009072339718, 38.89091623438911 ], [ -77.017717996311546, 38.891110083863353 ], [ -77.017829560530672, 38.891136218966082 ], [ -77.017847949002416, 38.891140533489846 ], [ -77.017848565226927, 38.8911407042566 ], [ -77.017849199723059, 38.891140827558878 ], [ -77.017924762276252, 38.891158630264442 ], [ -77.017947550568877, 38.891163969783598 ], [ -77.018001575467352, 38.891176605448202 ], [ -77.01808807128559, 38.891199794553515 ], [ -77.01809998777216, 38.891203408216782 ], [ -77.018814023675404, 38.891401284117791 ], [ -77.018859640143134, 38.891414781057506 ], [ -77.018976277883709, 38.891451514992994 ], [ -77.019125339517771, 38.891498166432335 ], [ -77.019207850305278, 38.891522577176247 ], [ -77.019209412620739, 38.891522939131022 ], [ -77.019275533754893, 38.891539971798629 ], [ -77.020089881252318, 38.891771274532275 ], [ -77.020284562685163, 38.891823240148774 ], [ -77.020291669429739, 38.891825446998645 ], [ -77.020298990071709, 38.891827174829764 ], [ -77.020472269957111, 38.891875441367972 ], [ -77.021317842626601, 38.892110805904395 ], [ -77.021327357766623, 38.892113491222325 ], [ -77.022099117801986, 38.892334287086541 ], [ -77.022272640452556, 38.892378727966076 ], [ -77.022460806047533, 38.892425695988706 ], [ -77.022506040949239, 38.892437800575117 ], [ -77.022859879556009, 38.892538939760605 ], [ -77.02334899159311, 38.892676060185934 ], [ -77.023745252686169, 38.892783862146949 ], [ -77.023756152641027, 38.892786875414544 ], [ -77.023982950225147, 38.892850574728229 ], [ -77.024012248649996, 38.892860096520927 ], [ -77.024042045107137, 38.892868622355067 ], [ -77.024116740841194, 38.892893307209107 ], [ -77.024359274096213, 38.892956403176342 ], [ -77.02437182192763, 38.892960211550886 ], [ -77.024384698982843, 38.892963276114195 ], [ -77.02453699577049, 38.893006006863018 ], [ -77.024879516658174, 38.893101773912136 ], [ -77.02538663881657, 38.893241607937028 ], [ -77.02610460420911, 38.893439116657696 ], [ -77.026281452259397, 38.893482448492193 ], [ -77.026298997245163, 38.893487498778896 ], [ -77.026316928914071, 38.89349163729203 ], [ -77.026398130872835, 38.893513817458746 ], [ -77.02655341490194, 38.893554936282889 ], [ -77.026578171780073, 38.893561738304086 ], [ -77.027281445359108, 38.893762020097732 ], [ -77.02745759439722, 38.893811058274238 ], [ -77.027633359730743, 38.893859613321368 ], [ -77.028284540316747, 38.894038433372224 ], [ -77.028303754294313, 38.894043859602967 ], [ -77.028506659350001, 38.89410275578404 ], [ -77.028662903810044, 38.894143034092842 ], [ -77.028693602845536, 38.894151324549824 ], [ -77.029038359257825, 38.894248697738838 ], [ -77.029842698283133, 38.894470196784781 ], [ -77.029890571983088, 38.89448432116896 ], [ -77.030049942676186, 38.894534526792704 ], [ -77.03012273095085, 38.894554261457728 ], [ -77.030124228812582, 38.894554581575086 ], [ -77.030144225222031, 38.894557782759378 ], [ -77.03015145248601, 38.894558628125139 ], [ -77.030190198131123, 38.894561919105364 ], [ -77.030218665876916, 38.8945633024627 ], [ -77.030228538548997, 38.894562946937782 ], [ -77.030243589481003, 38.89456248192775 ], [ -77.030666105296959, 38.894551587388783 ], [ -77.030730088842859, 38.894549582915303 ], [ -77.030807162065003, 38.894545937582102 ], [ -77.030932566888438, 38.894545347071528 ], [ -77.031057310122648, 38.894555406051694 ], [ -77.031206352731004, 38.894554613237354 ], [ -77.031216176654425, 38.894554593689236 ], [ -77.031739470038175, 38.894555293857877 ], [ -77.0317631660687, 38.894555515873229 ], [ -77.03197576337891, 38.894559215899029 ], [ -77.031981646002947, 38.894559544477382 ], [ -77.031987542821298, 38.894559467978311 ], [ -77.032156091223584, 38.894563748645218 ], [ -77.033420831500152, 38.894560767607373 ], [ -77.033559390585239, 38.89455483997471 ], [ -77.033672508750442, 38.894554344722238 ], [ -77.033785144352009, 38.894562516422098 ], [ -77.033896212688262, 38.894579276378195 ], [ -77.034004644149078, 38.894604463187868 ], [ -77.03410939451544, 38.894637834296141 ], [ -77.034209455014462, 38.894679068331278 ], [ -77.034303862033255, 38.894727768199509 ], [ -77.034391706398054, 38.894783464908627 ], [ -77.034472142129502, 38.894845622084226 ], [ -77.034544394589389, 38.894913641134572 ], [ -77.034607767940855, 38.894986867014872 ], [ -77.034661651849888, 38.895064594534993 ], [ -77.034705527363684, 38.895146075150379 ], [ -77.034738971909334, 38.895230524170266 ], [ -77.034761663364407, 38.895317128314318 ], [ -77.034773383160555, 38.895405053544579 ], [ -77.034774018389754, 38.895493453097316 ], [ -77.034773151409937, 38.895500752017774 ] ] ], [ [ [ -77.048221843281539, 38.902866336450082 ], [ -77.046274812357453, 38.902182294651517 ], [ -77.046178066278742, 38.902148313552303 ], [ -77.046172720143019, 38.902146183509856 ], [ -77.046167155629064, 38.902144427866425 ], [ -77.046064954668921, 38.902107527472609 ], [ -77.046064898447952, 38.902107504493806 ], [ -77.046064839617912, 38.90210748592655 ], [ -77.045910572244921, 38.902051770249649 ], [ -77.04535274902176, 38.901857770287428 ], [ -77.045348447488237, 38.901856072024962 ], [ -77.045343968342422, 38.901854682113758 ], [ -77.044824886894631, 38.901670077963558 ], [ -77.044572250085537, 38.901583401162291 ], [ -77.044556263443894, 38.901577168163342 ], [ -77.044539777292641, 38.901571787995714 ], [ -77.044524197787425, 38.90156598661175 ], [ -77.044508264616354, 38.901560565664717 ], [ -77.044449907014581, 38.901541685247139 ], [ -77.0444483341753, 38.901541104189505 ], [ -77.044446697797014, 38.901540642537739 ], [ -77.044351996852811, 38.901509742205931 ], [ -77.044340898252983, 38.901505609973754 ], [ -77.044329426363078, 38.901502155860292 ], [ -77.044297926059173, 38.901491255743586 ], [ -77.044293729905533, 38.901489606784111 ], [ -77.04428936100922, 38.901488259317134 ], [ -77.043658895655511, 38.901265281159453 ], [ -77.043109656206212, 38.90107635921143 ], [ -77.043099901258103, 38.901072546849825 ], [ -77.043089790616861, 38.901069350043215 ], [ -77.042999441961612, 38.901036665304588 ], [ -77.042893921733324, 38.901001578275803 ], [ -77.042884224428064, 38.900997904714671 ], [ -77.042874184429763, 38.9009948444778 ], [ -77.042423480110656, 38.90083714279082 ], [ -77.042422786215937, 38.900836867297002 ], [ -77.042422061487784, 38.900836645512278 ], [ -77.042156743269288, 38.90074347346318 ], [ -77.041791236195323, 38.900617579742672 ], [ -77.041785088265343, 38.900615174058721 ], [ -77.041778697968056, 38.9006131911895 ], [ -77.041374894137505, 38.900469589655074 ], [ -77.041373085596533, 38.900468860770246 ], [ -77.04137119699655, 38.900468268707044 ], [ -77.041236737701112, 38.900420003583015 ], [ -77.041127086840547, 38.900382849116355 ], [ -77.041122094398673, 38.900380924811742 ], [ -77.041116903787966, 38.900379352947546 ], [ -77.039695290116612, 38.899884847655379 ], [ -77.039691772713184, 38.899883458699478 ], [ -77.039688107837165, 38.899882326251976 ], [ -77.039158151076165, 38.899694576099556 ], [ -77.039021464202818, 38.89964926830681 ], [ -77.038920569893392, 38.899649403095694 ], [ -77.038920481275341, 38.899649399812382 ], [ -77.038920392671642, 38.899649403321732 ], [ -77.038755746767094, 38.899649603312056 ], [ -77.037978392945689, 38.899650603516733 ], [ -77.037977446707202, 38.899650568408873 ], [ -77.037976500543834, 38.899650604731548 ], [ -77.037931041165621, 38.899650604747187 ], [ -77.03785362623195, 38.899650703516734 ], [ -77.037403865217414, 38.899651303617496 ], [ -77.037403774595134, 38.899651300259627 ], [ -77.037403683987492, 38.899651303847818 ], [ -77.036657452732143, 38.899652204018679 ], [ -77.036428128010044, 38.899652503998034 ], [ -77.03642808751114, 38.89965250249638 ], [ -77.036428047018688, 38.899652504101681 ], [ -77.035707359705015, 38.899653404330635 ], [ -77.035236075314586, 38.89965400447069 ], [ -77.035123074736759, 38.899649810453163 ], [ -77.035011144389159, 38.899636981478473 ], [ -77.034901362262062, 38.899615641100162 ], [ -77.034794785654341, 38.899585994844173 ], [ -77.034692440989787, 38.899548328229372 ], [ -77.034595313930751, 38.899503004017397 ], [ -77.034516214259952, 38.899457317195392 ], [ -77.034431236937223, 38.899506126860359 ], [ -77.034333956260113, 38.899551249473042 ], [ -77.03423148399898, 38.899588703699351 ], [ -77.034197083675153, 38.899599703835584 ], [ -77.034184371411243, 38.89960321031073 ], [ -77.034172030037993, 38.899607449343058 ], [ -77.034149929821965, 38.899614049426084 ], [ -77.034148838333522, 38.899614328255616 ], [ -77.034147786158101, 38.899614687707384 ], [ -77.034036285064786, 38.899647788124383 ], [ -77.033928687289887, 38.899675089578139 ], [ -77.03381818302617, 38.899694018240147 ], [ -77.033705836526821, 38.899704391809422 ], [ -77.033592729789746, 38.899706110378027 ], [ -77.033479952135735, 38.899699157393464 ], [ -77.033368589716076, 38.899683599818204 ], [ -77.033259715050832, 38.899659587484678 ], [ -77.033154376698377, 38.899627351652128 ], [ -77.033053589155799, 38.899587202779237 ], [ -77.032958323087513, 38.899539527533811 ], [ -77.032869495976342, 38.899484785068509 ], [ -77.032787963286893, 38.899423502598367 ], [ -77.03271451022654, 38.899356270322919 ], [ -77.032649844183339, 38.899283735741626 ], [ -77.032594587913721, 38.899206597417411 ], [ -77.032549273545456, 38.899125598248645 ], [ -77.032514337453776, 38.899041518314 ], [ -77.032490116059861, 38.89895516735946 ], [ -77.032476842592217, 38.898867376999561 ], [ -77.032474644841898, 38.89877899270823 ], [ -77.032483543933381, 38.898690865676251 ], [ -77.032503454122718, 38.898603844613675 ], [ -77.032534183624804, 38.898518767576476 ], [ -77.032575436461912, 38.898436453895634 ], [ -77.032626815315538, 38.898357696286929 ], [ -77.032687825353918, 38.89828325321696 ], [ -77.032757878998524, 38.898213841599237 ], [ -77.032836301583529, 38.898150129890361 ], [ -77.03292233785352, 38.898092731653094 ], [ -77.03301515923728, 38.898042199647954 ], [ -77.033113871827041, 38.897999020510525 ], [ -77.033217524986938, 38.897963610065347 ], [ -77.033327951676654, 38.897930828781512 ], [ -77.033336395560212, 38.897928307086353 ], [ -77.033358326575623, 38.897921294280948 ], [ -77.033465001369109, 38.897891869911071 ], [ -77.033574853145609, 38.897870757863359 ], [ -77.033686824008299, 38.897858161450046 ], [ -77.0337998356556, 38.897854201975896 ], [ -77.033912799764437, 38.897858917570304 ], [ -77.034024628469723, 38.897872262820101 ], [ -77.034134244839592, 38.897894109206959 ], [ -77.034240593245286, 38.897924246344836 ], [ -77.034342649525996, 38.897962384005993 ], [ -77.034439430850881, 38.898008154915537 ], [ -77.034512920868139, 38.89805112824061 ], [ -77.034592209316699, 38.898005020441225 ], [ -77.034689145831209, 38.897959450536966 ], [ -77.034791331336478, 38.897921524806094 ], [ -77.034897781755106, 38.897891608481103 ], [ -77.03500747194218, 38.897869989661601 ], [ -77.035119345556808, 38.897856876540104 ], [ -77.035232325233835, 38.897852395397436 ], [ -77.035703619275679, 38.897851795565018 ], [ -77.035703640959795, 38.897851796369771 ], [ -77.035703662640387, 38.897851795510384 ], [ -77.036424313081895, 38.897850895817108 ], [ -77.036653669639932, 38.89785059595178 ], [ -77.036653747823081, 38.897850598850702 ], [ -77.036653825993909, 38.897850595755493 ], [ -77.037400025892055, 38.897849696130017 ], [ -77.03784972964749, 38.897849096411036 ], [ -77.03784977440705, 38.897849098069436 ], [ -77.037849819159163, 38.897849096294209 ], [ -77.03792821816802, 38.897848996322118 ], [ -77.037929159393272, 38.897849031252285 ], [ -77.0379301005445, 38.897848995122118 ], [ -77.037975553780129, 38.897848995137778 ], [ -77.038751997775989, 38.897847996628315 ], [ -77.038752053871335, 38.897847998709324 ], [ -77.038752109957713, 38.897847996487947 ], [ -77.038916719217653, 38.897847796654183 ], [ -77.039215768480645, 38.897847397091063 ], [ -77.039280009219297, 38.897847297360165 ], [ -77.039281154882858, 38.897847339559007 ], [ -77.039282300437037, 38.89784729558189 ], [ -77.03931180006407, 38.897847295591909 ], [ -77.039334902783807, 38.897848182504916 ], [ -77.039358032434677, 38.897848020365529 ], [ -77.039391364206537, 38.897850350038546 ], [ -77.03942478872807, 38.897851633180906 ], [ -77.039447668960449, 38.897854285350839 ], [ -77.039470707576953, 38.897855895582587 ], [ -77.039503586644983, 38.897860767048513 ], [ -77.039536689282713, 38.897864604127079 ], [ -77.039559126687024, 38.897868996012797 ], [ -77.039581852402748, 38.897872363108668 ], [ -77.039613962134965, 38.897879729453898 ], [ -77.039646424104248, 38.897886083516696 ], [ -77.039668202603593, 38.897892172823163 ], [ -77.039690396565447, 38.897897264357262 ], [ -77.039721427738485, 38.897907054642097 ], [ -77.039752936423326, 38.897915864497996 ], [ -77.039773846285797, 38.897923592583702 ], [ -77.039795294760808, 38.8979303595234 ], [ -77.039824948536648, 38.897942479464952 ], [ -77.039855200500782, 38.897953660273082 ], [ -77.039875040358723, 38.897962952714636 ], [ -77.039895536792415, 38.897971329892762 ], [ -77.039979328236313, 38.898009781290483 ], [ -77.040071451688632, 38.898040317492487 ], [ -77.040084160271192, 38.898045117917242 ], [ -77.040097286692273, 38.898049174048381 ], [ -77.040636495969807, 38.898240201734758 ], [ -77.042049405081471, 38.898731678110643 ], [ -77.042165301681109, 38.898770948818338 ], [ -77.042176404146815, 38.898775228174664 ], [ -77.042187893646954, 38.898778830056948 ], [ -77.042331745225795, 38.898830466490885 ], [ -77.042727439110934, 38.898971183623416 ], [ -77.043090449812013, 38.899096217223047 ], [ -77.043094163373752, 38.899097670321218 ], [ -77.043098030519417, 38.899098853769786 ], [ -77.043366418862547, 38.89919310375123 ], [ -77.043806576819549, 38.899347114941655 ], [ -77.043918766907069, 38.899384419715091 ], [ -77.043934988492296, 38.899390564797464 ], [ -77.043951699595411, 38.899395848550597 ], [ -77.044048508388641, 38.899430870249198 ], [ -77.044593228013184, 38.899618237077192 ], [ -77.04459857427274, 38.899620326426955 ], [ -77.044604134425171, 38.899622041337352 ], [ -77.045235753732499, 38.899845427131808 ], [ -77.045251729889131, 38.899850955384025 ], [ -77.045333488621452, 38.899877632706605 ], [ -77.045399882356477, 38.899899113016382 ], [ -77.04540932490869, 38.899902601393926 ], [ -77.045419094264645, 38.899905488434165 ], [ -77.045462593840796, 38.899920288275588 ], [ -77.045480191849776, 38.899927096830439 ], [ -77.045498312009116, 38.899933010227528 ], [ -77.045515490721456, 38.899939407097911 ], [ -77.045758837005465, 38.90002289622273 ], [ -77.045765747904909, 38.900025590675142 ], [ -77.045772925987706, 38.900027818119383 ], [ -77.04629463899316, 38.90021335773892 ], [ -77.046855535047442, 38.900408425909035 ], [ -77.046862850974904, 38.900411314211809 ], [ -77.046870451124335, 38.90041371288401 ], [ -77.047032092082418, 38.900472091485661 ], [ -77.047128791305468, 38.900507005351663 ], [ -77.047220122228168, 38.900539084355401 ], [ -77.04722017587244, 38.900539105728619 ], [ -77.047220231937061, 38.90053912289477 ], [ -77.049105978939011, 38.901201633288345 ], [ -77.049166686639651, 38.901209117506816 ], [ -77.049263567872273, 38.901227891803863 ], [ -77.049337022004821, 38.901244795078334 ], [ -77.049384292939166, 38.901233364158671 ], [ -77.049493876967219, 38.901211405337534 ], [ -77.049605687710283, 38.901197945322373 ], [ -77.049718648408628, 38.901193113734642 ], [ -77.049831671229711, 38.901196957102329 ], [ -77.049943667743094, 38.901209438411968 ], [ -77.05005355940105, 38.901230437465102 ], [ -77.050160287923973, 38.901259752035706 ], [ -77.050262825490833, 38.90129709981754 ], [ -77.050360184636389, 38.901342121142484 ], [ -77.050451427759882, 38.901394382443968 ], [ -77.050535676153885, 38.901453380431917 ], [ -77.050612118466248, 38.901518546939123 ], [ -77.050628002685741, 38.901535087926717 ], [ -77.050718843422629, 38.901526980844039 ], [ -77.05083196003001, 38.901525606727866 ], [ -77.050944704326994, 38.901532902819035 ], [ -77.051055990565189, 38.901548798853732 ], [ -77.051164747036253, 38.901573141749026 ], [ -77.051269926391612, 38.901605697077024 ], [ -77.051370515727513, 38.90164615132214 ], [ -77.051465546338761, 38.901694114900195 ], [ -77.051554103046826, 38.901749125909753 ], [ -77.051635333012854, 38.901810654579933 ], [ -77.05170845395061, 38.901878108371854 ], [ -77.051772761660104, 38.90195083768451 ], [ -77.051827636809705, 38.902028142110076 ], [ -77.05186370457767, 38.902093296752845 ], [ -77.051874870291698, 38.902097724789144 ], [ -77.05196829248483, 38.902144070974252 ], [ -77.052055597492142, 38.902197202855064 ], [ -77.052134705751868, 38.90225568817101 ], [ -77.053526281698396, 38.902747271736153 ], [ -77.053572468460132, 38.902763561241883 ], [ -77.05357284290173, 38.902763710997164 ], [ -77.053573234213104, 38.902763831575911 ], [ -77.053765669435023, 38.90283183281408 ], [ -77.053840181645825, 38.902856555733329 ], [ -77.053867593909715, 38.902866919491323 ], [ -77.05389557929324, 38.902876301517068 ], [ -77.053915205137457, 38.902883792289593 ], [ -77.054022383601406, 38.902918326681885 ], [ -77.054025525661558, 38.902919483137389 ], [ -77.054028790586514, 38.90292040874828 ], [ -77.054617384730221, 38.90311330667781 ], [ -77.054626891224856, 38.903116860321688 ], [ -77.054636730404724, 38.903119809693422 ], [ -77.054928627581006, 38.90322040861647 ], [ -77.054930068907154, 38.903220972905011 ], [ -77.054931572458614, 38.903221427370447 ], [ -77.055044171374234, 38.903260526952096 ], [ -77.055044321103722, 38.9032605859814 ], [ -77.055044477499294, 38.903260633294352 ], [ -77.05511497682069, 38.903285133032234 ], [ -77.055115171351758, 38.903285209779369 ], [ -77.055115374543576, 38.903285271317955 ], [ -77.055212694000176, 38.903319125819323 ], [ -77.055301112159526, 38.903349682787152 ], [ -77.055301522061086, 38.903349843677994 ], [ -77.055301950040032, 38.903349972666042 ], [ -77.055617246998807, 38.903459171497445 ], [ -77.05562349195344, 38.903461627544218 ], [ -77.055629983959435, 38.903463655089041 ], [ -77.055937481052382, 38.903573653914492 ], [ -77.055937898304791, 38.903573822994204 ], [ -77.055938334615263, 38.903573959580648 ], [ -77.056121188689247, 38.903639510969136 ], [ -77.057005581577684, 38.903943954244376 ], [ -77.057013674743089, 38.903947119361405 ], [ -77.057022074142552, 38.903949752675231 ], [ -77.057111773296427, 38.903981952331506 ], [ -77.057115741945935, 38.903983565726982 ], [ -77.057119880832104, 38.903984892515389 ], [ -77.057160174153751, 38.903999653417848 ], [ -77.057277855732309, 38.904040590580038 ], [ -77.057332762192885, 38.904045185729963 ], [ -77.05744312061411, 38.904063070303643 ], [ -77.057550716674896, 38.904089289625084 ], [ -77.057794626965546, 38.904159119170444 ], [ -77.058364326063796, 38.904319064327687 ], [ -77.058483299745134, 38.904358479625017 ], [ -77.058595880606688, 38.904408051300805 ], [ -77.05863728032665, 38.904428751089888 ], [ -77.058654082018634, 38.904437313792748 ], [ -77.05875728136175, 38.904490913251173 ], [ -77.058848314073757, 38.904543401881128 ], [ -77.058932324259857, 38.904602609675834 ], [ -77.059008502861673, 38.904667966447562 ], [ -77.059076116235232, 38.904738842790813 ], [ -77.059134513216378, 38.904814556143201 ], [ -77.059183131392317, 38.904894377358303 ], [ -77.059221502518582, 38.90497753772727 ], [ -77.059249257029492, 38.905063236381238 ], [ -77.059266127598406, 38.905150648003925 ], [ -77.059271951713626, 38.905238930779333 ], [ -77.059266673244935, 38.905327234498813 ], [ -77.059250342985763, 38.905414708748964 ], [ -77.05922311816559, 38.905500511101408 ], [ -77.059185260937269, 38.905583815226166 ], [ -77.059137135853746, 38.905663818849852 ], [ -77.059079206358518, 38.905739751482265 ], [ -77.059012030323458, 38.90581088183724 ], [ -77.058936254677008, 38.90587652487568 ], [ -77.058852609174409, 38.905936048403561 ], [ -77.058761899369969, 38.905988879160844 ], [ -77.058664998859101, 38.906034508342884 ], [ -77.058562840864653, 38.906072496501174 ], [ -77.058456409248805, 38.906102477775896 ], [ -77.05834672903697, 38.906124163420017 ], [ -77.05823485654507, 38.906137344580365 ], [ -77.058121869205252, 38.906141894309414 ], [ -77.058008855188191, 38.906137768788049 ], [ -77.057986122005815, 38.906135177522607 ], [ -77.057942076701977, 38.906138715322825 ], [ -77.057828940434419, 38.906139092181235 ], [ -77.057716301688259, 38.906130802477001 ], [ -77.057605245276889, 38.906113926046373 ], [ -77.057496840772956, 38.906088625423521 ], [ -77.057309061775754, 38.906036831215133 ], [ -77.057018281434139, 38.905956636634329 ], [ -77.057006057562305, 38.905952728392826 ], [ -77.056993492134765, 38.905949549530426 ], [ -77.056717889257655, 38.90586794865218 ], [ -77.056617894157043, 38.905834035543315 ], [ -77.056522445511192, 38.905792894527757 ], [ -77.056432396700899, 38.905744893438907 ], [ -77.056348552823607, 38.905690461444159 ], [ -77.056346102287208, 38.905688537198202 ], [ -77.056212113172009, 38.905641927130219 ], [ -77.056202045223912, 38.905637951419209 ], [ -77.056191608754204, 38.905634605826116 ], [ -77.056145154833828, 38.905617588031475 ], [ -77.056067732459624, 38.905589795351794 ], [ -77.055183599366572, 38.905285440797748 ], [ -77.055175776774945, 38.905282381407794 ], [ -77.055167656464505, 38.905279839360638 ], [ -77.054977281377276, 38.905211591604044 ], [ -77.054676556552522, 38.905104015123264 ], [ -77.054368058372063, 38.904997170719803 ], [ -77.054278776528037, 38.904966315200511 ], [ -77.054277523437818, 38.904965823347375 ], [ -77.054276215909482, 38.904965427349467 ], [ -77.054177813812899, 38.904931196157349 ], [ -77.054107665066624, 38.90490681819805 ], [ -77.05399668861503, 38.904868281929815 ], [ -77.053715894184833, 38.904771509251589 ], [ -77.053140198915344, 38.904582838307725 ], [ -77.053002505066701, 38.904538471341837 ], [ -77.0529695186856, 38.904526330435814 ], [ -77.052936009992123, 38.904515096707094 ], [ -77.052910975055227, 38.904505541376956 ], [ -77.052852207357532, 38.904486042391149 ], [ -77.052840183347826, 38.904481496458004 ], [ -77.052827757122699, 38.904477667450877 ], [ -77.052623537997206, 38.904405501958131 ], [ -77.052577420497428, 38.904389236842626 ], [ -77.052577114636264, 38.904389114515368 ], [ -77.052576794977867, 38.904389016053649 ], [ -77.051223688193446, 38.903911021194823 ], [ -77.051186220610717, 38.90390923524474 ], [ -77.051069624071317, 38.903894207235389 ], [ -77.050955609030723, 38.90386993149049 ], [ -77.050858820295261, 38.903840721251335 ], [ -77.050827507445604, 38.903849602657338 ], [ -77.050717891286837, 38.903871475573176 ], [ -77.050606059134381, 38.903884847740599 ], [ -77.050493088031871, 38.903889590372465 ], [ -77.050380065993522, 38.903885657791882 ], [ -77.050268081524464, 38.903873087872036 ], [ -77.050158213136271, 38.903852001671495 ], [ -77.050051518958682, 38.903822602268342 ], [ -77.049949026547893, 38.903785172803957 ], [ -77.049851722989359, 38.903740073756047 ], [ -77.049760545390527, 38.903687739466505 ], [ -77.049676371855142, 38.903628673957954 ], [ -77.049600013026222, 38.903563446079247 ], [ -77.049555126341417, 38.903516604444924 ], [ -77.049482015704982, 38.903521438260057 ], [ -77.049368892916817, 38.90352022173419 ], [ -77.049256467467558, 38.903510347028686 ], [ -77.049145822116174, 38.903491909244792 ], [ -77.049038022476054, 38.903465085953911 ], [ -77.048934106751034, 38.903430135487298 ], [ -77.048835075735695, 38.903387394447797 ], [ -77.04874188317595, 38.903337274467894 ], [ -77.048655426583153, 38.903280258244806 ], [ -77.048576538589828, 38.903216894891401 ], [ -77.048505978930777, 38.90314779464736 ], [ -77.04844442712637, 38.903073623001546 ], [ -77.048392475938584, 38.90299509428241 ], [ -77.048373062382851, 38.902961843741068 ], [ -77.048372378421902, 38.902960861129678 ], [ -77.048221843281539, 38.902866336450082 ] ] ] ] } }
]
}
