{
"type": "FeatureCollection",
"name": "corridor",
"crs": { "type": "name", "properties": { "name": "urn:ogc:def:crs:OGC:1.3:CRS84" } },
"features": [
{ "type": "Feature", "properties": { "name": "Pennsylvania Avenue NW" }, "geometry": { "type": "MultiLineString", "coordinates": [ [ [ -77.0581191, 38.9052411 ], [ -77.0580159, 38.9051875 ], [ -77.0579745, 38.9051668 ], [ -77.0574014, 38.9050059 ] ], [ [ -77.0497251, 38.9020939 ], [ -77.0494807, 38.902153 ], [ -77.0494114, 38.9021587 ], [ -77.049337, 38.9021599 ], [ -77.0492752, 38.902158 ], [ -77.0492104, 38.9021513 ], [ -77.049138, 38.9021389 ], [ -77.04908, 38.9021247 ], [ -77.0489379, 38.902092 ], [ -77.0488223, 38.9020896 ] ], [ [ -77.0174373, 38.8921637 ], [ -77.0175907, 38.8921994 ], [ -77.0180001, 38.892312 ], [ -77.0183963, 38.8924221 ], [ -77.01844, 38.8924351 ] ], [ [ -77.0185524, 38.8924672 ], [ -77.0186627, 38.8924986 ], [ -77.0197269, 38.8927928 ], [ -77.0199136, 38.8928445 ] ], [ [ -77.0296145, 38.8961361 ], [ -77.0297973, 38.8961245 ], [ -77.0304833, 38.8961262 ], [ -77.0317666, 38.896126 ], [ -77.0318697, 38.8961283 ], [ -77.0319537, 38.8961343 ] ], [ [ -77.0514153, 38.9029901 ], [ -77.0513044, 38.9028805 ], [ -77.0512111, 38.9028478 ], [ -77.051131, 38.9028149 ], [ -77.0510792, 38.9027904 ], [ -77.0510228, 38.902754 ], [ -77.0509825, 38.9027168 ] ], [ [ -77.0514153, 38.9029901 ], [ -77.0515109, 38.9030239 ] ], [ [ -77.0515109, 38.9030239 ], [ -77.0530517, 38.9035682 ] ], [ [ -77.0530517, 38.9035682 ], [ -77.0530982, 38.9035846 ] ], [ [ -77.0530982, 38.9035846 ], [ -77.0533028, 38.9036569 ] ], [ [ -77.0488223, 38.9020896 ], [ -77.0489332, 38.9021574 ], [ -77.0491001, 38.9022622 ], [ -77.0491881, 38.9023182 ], [ -77.0492457, 38.9023614 ] ], [ [ -77.0488223, 38.9020896 ], [ -77.0487058, 38.9020487 ] ], [ [ -77.0487058, 38.9020487 ], [ -77.0467475, 38.9013607 ] ], [ [ -77.0467475, 38.9013607 ], [ -77.0466507, 38.9013267 ] ], [ [ -77.0533028, 38.9036569 ], [ -77.0533896, 38.9036857 ] ], [ [ -77.0533896, 38.9036857 ], [ -77.053442, 38.9037057 ] ], [ [ -77.053442, 38.9037057 ], [ -77.0535829, 38.9037511 ] ], [ [ -77.0535829, 38.9037511 ], [ -77.0541715, 38.903944 ] ], [ [ -77.0541715, 38.903944 ], [ -77.0544634, 38.9040446 ] ], [ [ -77.0544634, 38.9040446 ], [ -77.054576, 38.9040837 ] ], [ [ -77.054576, 38.9040837 ], [ -77.0546465, 38.9041082 ] ], [ [ -77.0546465, 38.9041082 ], [ -77.0547451, 38.9041425 ] ], [ [ -77.0417067, 38.8995974 ], [ -77.0415857, 38.8995564 ] ], [ [ -77.0415857, 38.8995564 ], [ -77.0401641, 38.8990619 ] ], [ [ -77.0401641, 38.8990619 ], [ -77.0396213, 38.8988696 ] ], [ [ -77.0396213, 38.8988696 ], [ -77.0394602, 38.8988162 ] ], [ [ -77.0417067, 38.8995974 ], [ -77.0418524, 38.8996497 ] ], [ [ -77.0418524, 38.8996497 ], [ -77.0422562, 38.8997933 ] ], [ [ -77.0422562, 38.8997933 ], [ -77.0426255, 38.8999205 ] ], [ [ -77.0426255, 38.8999205 ], [ -77.0428946, 38.900015 ] ], [ [ -77.0428946, 38.900015 ], [ -77.0433453, 38.9001727 ] ], [ [ -77.0433453, 38.9001727 ], [ -77.0434674, 38.9002133 ] ], [ [ -77.0547451, 38.9041425 ], [ -77.0548348, 38.9041735 ] ], [ [ -77.0548348, 38.9041735 ], [ -77.0551501, 38.9042827 ] ], [ [ -77.0551501, 38.9042827 ], [ -77.0554576, 38.9043927 ] ], [ [ -77.0554576, 38.9043927 ], [ -77.0556484, 38.9044611 ] ], [ [ -77.0556484, 38.9044611 ], [ -77.0565408, 38.9047683 ] ], [ [ -77.0565408, 38.9047683 ], [ -77.0566305, 38.9048005 ] ], [ [ -77.0566305, 38.9048005 ], [ -77.056681, 38.904819 ] ], [ [ -77.0509825, 38.9027168 ], [ -77.0509365, 38.9026627 ], [ -77.0509001, 38.902623 ], [ -77.0508691, 38.902579 ], [ -77.0508376, 38.9025181 ], [ -77.0507933, 38.9024259 ] ], [ [ -77.056681, 38.904819 ], [ -77.0569127, 38.9048996 ] ], [ [ -77.0569127, 38.9048996 ], [ -77.0570262, 38.9049391 ] ], [ [ -77.0492457, 38.9023614 ], [ -77.0493026, 38.9024198 ], [ -77.0493336, 38.9024597 ], [ -77.0493696, 38.9025082 ], [ -77.0494051, 38.9025592 ], [ -77.0494413, 38.9026212 ] ], [ [ -77.0570262, 38.9049391 ], [ -77.0571264, 38.9050256 ], [ -77.057402, 38.9051072 ] ], [ [ -77.0336269, 38.8988057 ], [ -77.0337384, 38.8987726 ] ], [ [ -77.0337384, 38.8987726 ], [ -77.0337605, 38.898766 ] ], [ [ -77.0337605, 38.898766 ], [ -77.0337949, 38.898755 ] ], [ [ -77.0574014, 38.9050059 ], [ -77.0571541, 38.9049351 ], [ -77.0570262, 38.9049391 ] ], [ [ -77.057402, 38.9051072 ], [ -77.0576928, 38.9051874 ], [ -77.0578806, 38.9052392 ] ], [ [ -77.0504878, 38.9029888 ], [ -77.0506464, 38.9029368 ], [ -77.0507153, 38.9029178 ], [ -77.0507792, 38.9029062 ], [ -77.050841, 38.9028991 ], [ -77.0509036, 38.9029011 ], [ -77.0509882, 38.9029157 ], [ -77.0510671, 38.9029327 ], [ -77.0511473, 38.9029555 ], [ -77.0513153, 38.9030141 ], [ -77.0514153, 38.9029901 ] ], [ [ -77.0466507, 38.9013267 ], [ -77.0465485, 38.9012898 ] ], [ [ -77.0465485, 38.9012898 ], [ -77.0463868, 38.9012314 ] ], [ [ -77.0463868, 38.9012314 ], [ -77.0458215, 38.9010348 ] ], [ [ -77.0458215, 38.9010348 ], [ -77.0452954, 38.9008477 ] ], [ [ -77.0434674, 38.9002133 ], [ -77.0435741, 38.9002519 ] ], [ [ -77.0435741, 38.9002519 ], [ -77.0441288, 38.9004427 ] ], [ [ -77.0441288, 38.9004427 ], [ -77.0447647, 38.9006676 ] ], [ [ -77.0447647, 38.9006676 ], [ -77.0447962, 38.9006785 ] ], [ [ -77.0447962, 38.9006785 ], [ -77.0448909, 38.9007094 ] ], [ [ -77.0394602, 38.8988162 ], [ -77.0393118, 38.8987481 ] ], [ [ -77.0393118, 38.8987481 ], [ -77.0392823, 38.8987481 ] ], [ [ -77.0392823, 38.8987481 ], [ -77.0392179, 38.8987482 ] ], [ [ -77.0392179, 38.8987482 ], [ -77.0389186, 38.8987486 ] ], [ [ -77.0389186, 38.8987486 ], [ -77.0387539, 38.8987488 ] ], [ [ -77.0387539, 38.8987488 ], [ -77.0379765, 38.8987498 ] ], [ [ -77.0379765, 38.8987498 ], [ -77.0379301, 38.8987498 ] ], [ [ -77.0448909, 38.9007094 ], [ -77.0449589, 38.9007314 ] ], [ [ -77.0449589, 38.9007314 ], [ -77.0450024, 38.9007462 ] ], [ [ -77.0450024, 38.9007462 ], [ -77.0450357, 38.9007586 ] ], [ [ -77.0450357, 38.9007586 ], [ -77.0452954, 38.9008477 ] ], [ [ -77.0235931, 38.8936983 ], [ -77.0233663, 38.8936346 ], [ -77.0229649, 38.8935254 ], [ -77.0224673, 38.8933859 ], [ -77.0221101, 38.8932838 ], [ -77.0219178, 38.8932358 ] ], [ [ -77.0152171, 38.8913768 ], [ -77.0150075, 38.8913287 ], [ -77.0147325, 38.8912654 ], [ -77.0127873, 38.8907234 ], [ -77.0127462, 38.8907078 ], [ -77.0127035, 38.8906857 ], [ -77.0126647, 38.8906633 ], [ -77.012522, 38.8905831 ] ], [ [ -77.0152099, 38.8915437 ], [ -77.0153901, 38.8916055 ], [ -77.0161001, 38.8918042 ], [ -77.0162121, 38.891836 ] ], [ [ -77.0175165, 38.8920033 ], [ -77.0174986, 38.8919991 ], [ -77.017362, 38.8919671 ], [ -77.016624, 38.8917653 ], [ -77.0165242, 38.8917373 ] ], [ [ -77.0165242, 38.8917373 ], [ -77.0164453, 38.8917152 ] ], [ [ -77.018707, 38.8923376 ], [ -77.0185466, 38.8922874 ] ], [ [ -77.0185466, 38.8922874 ], [ -77.0184288, 38.8922503 ], [ -77.0176988, 38.892048 ], [ -77.0176711, 38.8920396 ], [ -77.0176168, 38.8920269 ], [ -77.0175929, 38.8920213 ], [ -77.0175165, 38.8920033 ] ], [ [ -77.0199136, 38.8928445 ], [ -77.0200988, 38.8928958 ], [ -77.0213556, 38.8932443 ], [ -77.0217505, 38.8933597 ], [ -77.021918, 38.8934002 ] ], [ [ -77.019912, 38.8926757 ], [ -77.0197067, 38.8926209 ], [ -77.0188818, 38.8923866 ], [ -77.0188395, 38.8923768 ], [ -77.018707, 38.8923376 ] ], [ [ -77.021918, 38.8934002 ], [ -77.0220956, 38.8934487 ], [ -77.0234235, 38.8938177 ], [ -77.023784, 38.8939153 ], [ -77.0238807, 38.8939445 ], [ -77.0239809, 38.8939723 ] ], [ [ -77.0219178, 38.8932358 ], [ -77.0217214, 38.8931855 ], [ -77.0209311, 38.8929594 ], [ -77.0200854, 38.892724 ], [ -77.019912, 38.8926757 ] ], [ [ -77.0239952, 38.8938111 ], [ -77.0237096, 38.8937368 ], [ -77.0235931, 38.8936983 ] ], [ [ -77.0239809, 38.8939723 ], [ -77.0241444, 38.8940164 ], [ -77.0254529, 38.8943813 ], [ -77.0258173, 38.8944809 ], [ -77.0259853, 38.8945327 ] ], [ [ -77.026023, 38.8943656 ], [ -77.0259366, 38.894342 ] ], [ [ -77.0259366, 38.894342 ], [ -77.0257407, 38.894294 ], [ -77.0250035, 38.8940912 ], [ -77.0244936, 38.8939506 ], [ -77.0241481, 38.893854 ], [ -77.0239952, 38.8938111 ] ], [ [ -77.0270519, 38.8948229 ], [ -77.0271373, 38.8948462 ], [ -77.0272544, 38.8948781 ], [ -77.0275667, 38.8949652 ], [ -77.0279209, 38.895062 ], [ -77.0281145, 38.8951148 ] ], [ [ -77.0270721, 38.89466 ], [ -77.0268907, 38.8946095 ], [ -77.0261835, 38.8944081 ], [ -77.026023, 38.8943656 ] ], [ [ -77.0281145, 38.8951148 ], [ -77.0282682, 38.8951576 ], [ -77.0284679, 38.8952154 ], [ -77.0288848, 38.895321 ], [ -77.0293916, 38.8954561 ], [ -77.0294399, 38.8954706 ], [ -77.0296234, 38.8955186 ] ], [ [ -77.0281253, 38.894953 ], [ -77.0279024, 38.8948883 ], [ -77.0272502, 38.8947092 ], [ -77.0270721, 38.89466 ] ], [ [ -77.0296453, 38.8953783 ], [ -77.0294596, 38.8953198 ], [ -77.0286509, 38.8950971 ], [ -77.0283018, 38.8949985 ], [ -77.0281253, 38.894953 ] ], [ [ -77.0296234, 38.8955186 ], [ -77.0296712, 38.8955308 ], [ -77.0297897, 38.8955585 ], [ -77.0299101, 38.8955804 ], [ -77.0299893, 38.8955894 ], [ -77.0301363, 38.8955974 ], [ -77.0303098, 38.8955963 ], [ -77.0305962, 38.8955954 ], [ -77.0307364, 38.895595 ] ], [ [ -77.0307082, 38.8954518 ], [ -77.0302816, 38.8954628 ], [ -77.0302094, 38.8954654 ], [ -77.0300921, 38.8954597 ], [ -77.0300038, 38.8954522 ], [ -77.0299431, 38.8954451 ], [ -77.0298519, 38.8954305 ], [ -77.0298441, 38.8954286 ], [ -77.0297814, 38.8954152 ], [ -77.0296453, 38.8953783 ] ], [ [ -77.030788, 38.8954493 ], [ -77.0307082, 38.8954518 ] ], [ [ -77.0307364, 38.895595 ], [ -77.0308814, 38.8955929 ], [ -77.0312426, 38.8955939 ], [ -77.0314631, 38.8955831 ], [ -77.0317393, 38.8955826 ], [ -77.0319511, 38.8955764 ] ], [ [ -77.0319511, 38.8955764 ], [ -77.0321385, 38.8955669 ], [ -77.0330224, 38.8955661 ], [ -77.033451, 38.8955628 ], [ -77.0336226, 38.8955549 ] ], [ [ -77.0319501, 38.8954598 ], [ -77.0317375, 38.8954561 ], [ -77.0312142, 38.8954554 ], [ -77.0309322, 38.8954569 ], [ -77.0308768, 38.8954451 ], [ -77.030788, 38.8954493 ] ], [ [ -77.0319537, 38.8961343 ], [ -77.032047, 38.8961468 ], [ -77.032152, 38.8961645 ], [ -77.0327719, 38.8963436 ], [ -77.0328776, 38.8963733 ], [ -77.0329468, 38.8963893 ], [ -77.0330191, 38.8964028 ], [ -77.0330939, 38.8964102 ], [ -77.0331759, 38.8964134 ], [ -77.0334491, 38.8964113 ], [ -77.0336193, 38.8964126 ] ], [ [ -77.0259853, 38.8945327 ], [ -77.0261962, 38.8945884 ], [ -77.026507, 38.8946731 ], [ -77.0268577, 38.8947703 ], [ -77.0269226, 38.8947884 ], [ -77.0270519, 38.8948229 ] ], [ [ -77.0124327, 38.8907892 ], [ -77.0125938, 38.8908228 ], [ -77.0126905, 38.8908394 ], [ -77.0127556, 38.8908536 ], [ -77.0149743, 38.8914686 ], [ -77.0150145, 38.8914805 ], [ -77.0152099, 38.8915437 ] ], [ [ -77.0336224, 38.8954543 ], [ -77.0334541, 38.8954615 ], [ -77.0321391, 38.8954646 ], [ -77.0319501, 38.8954598 ] ], [ [ -77.0163913, 38.8918861 ], [ -77.0171388, 38.8920901 ], [ -77.0173009, 38.8921342 ], [ -77.0174373, 38.8921637 ] ], [ [ -77.0162121, 38.891836 ], [ -77.0163913, 38.8918861 ] ], [ [ -77.0379301, 38.8987498 ], [ -77.0378517, 38.8987499 ] ], [ [ -77.0378517, 38.8987499 ], [ -77.0374019, 38.8987505 ] ], [ [ -77.0374019, 38.8987505 ], [ -77.0366556, 38.8987514 ] ], [ [ -77.0366556, 38.8987514 ], [ -77.0364262, 38.8987517 ] ], [ [ -77.0364262, 38.8987517 ], [ -77.0357055, 38.8987526 ] ], [ [ -77.0357055, 38.8987526 ], [ -77.0352342, 38.8987532 ] ], [ [ -77.0164453, 38.8917152 ], [ -77.0161072, 38.8916223 ], [ -77.0154564, 38.8914424 ], [ -77.0154001, 38.8914239 ], [ -77.0152171, 38.8913768 ] ], [ [ -77.01844, 38.8924351 ], [ -77.0185524, 38.8924672 ] ] ] } }
]
}
