{
"type": "FeatureCollection",
"name": "impact_zone_buffer",
"crs": { "type": "name", "properties": { "name": "urn:ogc:def:crs:OGC:1.3:CRS84" } },
"features": [
{ "type": "Feature", "properties": { "name": "Penn Ave West Streetscape Project (17th–22nd St NW)" }, "geometry": { "type": "Polygon", "coordinates": [ [ [ -77.0367, 38.897850540087688 ], [ -77.037400025892055, 38.897849696130017 ], [ -77.03784972964749, 38.897849096411036 ], [ -77.03784977440705, 38.897849098069436 ], [ -77.037849819159163, 38.897849096294209 ], [ -77.03792821816802, 38.897848996322118 ], [ -77.037929159393272, 38.897849031252285 ], [ -77.0379301005445, 38.897848995122118 ], [ -77.037975553780129, 38.897848995137778 ], [ -77.038751997775989, 38.897847996628315 ], [ -77.038752053871335, 38.897847998709324 ], [ -77.038752109957713, 38.897847996487947 ], [ -77.038916719217653, 38.897847796654183 ], [ -77.039215768480645, 38.897847397091063 ], [ -77.039280009219297, 38.897847297360165 ], [ -77.039281154882858, 38.897847339559007 ], [ -77.039282300437037, 38.89784729558189 ], [ -77.03931180006407, 38.897847295591909 ], [ -77.039334902783807, 38.897848182504916 ], [ -77.039358032434677, 38.897848020365529 ], [ -77.039391364206537, 38.897850350038546 ], [ -77.03942478872807, 38.897851633180906 ], [ -77.039447668960449, 38.897854285350839 ], [ -77.039470707576953, 38.897855895582587 ], [ -77.039503586644983, 38.897860767048513 ], [ -77.039536689282713, 38.897864604127079 ], [ -77.039559126687024, 38.897868996012797 ], [ -77.039581852402748, 38.897872363108668 ], [ -77.039613962134965, 38.897879729453898 ], [ -77.039646424104248, 38.897886083516696 ], [ -77.039668202603593, 38.897892172823163 ], [ -77.039690396565447, 38.897897264357262 ], [ -77.039721427738485, 38.897907054642097 ], [ -77.039752936423326, 38.897915864497996 ], [ -77.039773846285797, 38.897923592583702 ], [ -77.039795294760808, 38.8979303595234 ], [ -77.039824948536648, 38.897942479464952 ], [ -77.039855200500782, 38.897953660273082 ], [ -77.039875040358723, 38.897962952714636 ], [ -77.039895536792415, 38.897971329892762 ], [ -77.039979328236313, 38.898009781290483 ], [ -77.040071451688632, 38.898040317492487 ], [ -77.040084160271192, 38.898045117917242 ], [ -77.040097286692273, 38.898049174048381 ], [ -77.040636495969807, 38.898240201734758 ], [ -77.042049405081471, 38.898731678110643 ], [ -77.042165301681109, 38.898770948818338 ], [ -77.042176404146815, 38.898775228174664 ], [ -77.042187893646954, 38.898778830056948 ], [ -77.042331745225795, 38.898830466490885 ], [ -77.042727439110934, 38.898971183623416 ], [ -77.043090449812013, 38.899096217223047 ], [ -77.043094163373752, 38.899097670321218 ], [ -77.043098030519417, 38.899098853769786 ], [ -77.043366418862547, 38.89919310375123 ], [ -77.043806576819549, 38.899347114941655 ], [ -77.043918766907069, 38.899384419715091 ], [ -77.043934988492296, 38.899390564797464 ], [ -77.043951699595411, 38.899395848550597 ], [ -77.044048508388641, 38.899430870249198 ], [ -77.044593228013184, 38.899618237077192 ], [ -77.04459857427274, 38.899620326426955 ], [ -77.044604134425171, 38.899622041337352 ], [ -77.045235753732499, 38.899845427131808 ], [ -77.045251729889131, 38.899850955384025 ], [ -77.045333488621452, 38.899877632706605 ], [ -77.045399882356477, 38.899899113016382 ], [ -77.04540932490869, 38.899902601393926 ], [ -77.045419094264645, 38.899905488434165 ], [ -77.045462593840796, 38.899920288275588 ], [ -77.045480191849776, 38.899927096830439 ], [ -77.045498312009116, 38.899933010227528 ], [ -77.045515490721456, 38.899939407097911 ], [ -77.045758837005465, 38.90002289622273 ], [ -77.045765747904909, 38.900025590675142 ], [ -77.045772925987706, 38.900027818119383 ], [ -77.04629463899316, 38.90021335773892 ], [ -77.046855535047442, 38.900408425909035 ], [ -77.046862850974904, 38.900411314211809 ], [ -77.046870451124335, 38.90041371288401 ], [ -77.047032092082418, 38.900472091485661 ], [ -77.047128791305468, 38.900507005351663 ], [ -77.047220122228168, 38.900539084355401 ], [ -77.04722017587244, 38.900539105728619 ], [ -77.047220231937061, 38.90053912289477 ], [ -77.049105978939011, 38.901201633288345 ], [ -77.049166686639651, 38.901209117506816 ], [ -77.049263567872273, 38.901227891803863 ], [ -77.049337022004821, 38.901244795078334 ], [ -77.049384292939166, 38.901233364158671 ], [ -77.049493876967219, 38.901211405337534 ], [ -77.049605687710283, 38.901197945322373 ], [ -77.049718648408628, 38.901193113734642 ], [ -77.049831671229711, 38.901196957102329 ], [ -77.049943667743094, 38.901209438411968 ], [ -77.05005355940105, 38.901230437465102 ], [ -77.050160287923973, 38.901259752035706 ], [ -77.050262825490833, 38.90129709981754 ], [ -77.050360184636389, 38.901342121142484 ], [ -77.050451427759882, 38.901394382443968 ], [ -77.050535676153885, 38.901453380431917 ], [ -77.050612118466248, 38.901518546939123 ], [ -77.050628002685741, 38.901535087926717 ], [ -77.0507, 38.901528662525521 ], [ -77.0507, 38.903873614897847 ], [ -77.050606059134381, 38.903884847740599 ], [ -77.050493088031871, 38.903889590372465 ], [ -77.050380065993522, 38.903885657791882 ], [ -77.050268081524464, 38.903873087872036 ], [ -77.050158213136271, 38.903852001671495 ], [ -77.050051518958682, 38.903822602268342 ], [ -77.049949026547893, 38.903785172803957 ], [ -77.049851722989359, 38.903740073756047 ], [ -77.049760545390527, 38.903687739466505 ], [ -77.049676371855142, 38.903628673957954 ], [ -77.049600013026222, 38.903563446079247 ], [ -77.049555126341417, 38.903516604444924 ], [ -77.049482015704982, 38.903521438260057 ], [ -77.049368892916817, 38.90352022173419 ], [ -77.049256467467558, 38.903510347028686 ], [ -77.049145822116174, 38.903491909244792 ], [ -77.049038022476054, 38.903465085953911 ], [ -77.048934106751034, 38.903430135487298 ], [ -77.048835075735695, 38.903387394447797 ], [ -77.04874188317595, 38.903337274467894 ], [ -77.048655426583153, 38.903280258244806 ], [ -77.048576538589828, 38.903216894891401 ], [ -77.048505978930777, 38.90314779464736 ], [ -77.04844442712637, 38.903073623001546 ], [ -77.048392475938584, 38.90299509428241 ], [ -77.048373062382851, 38.902961843741068 ], [ -77.048372378421902, 38.902960861129678 ], [ -77.048221843281539, 38.902866336450082 ], [ -77.046274812357453, 38.902182294651517 ], [ -77.046178066278742, 38.902148313552303 ], [ -77.046172720143019, 38.902146183509856 ], [ -77.046167155629064, 38.902144427866425 ], [ -77.046064954668921, 38.902107527472609 ], [ -77.046064898447952, 38.902107504493806 ], [ -77.046064839617912, 38.90210748592655 ], [ -77.045910572244921, 38.902051770249649 ], [ -77.04535274902176, 38.901857770287428 ], [ -77.045348447488237, 38.901856072024962 ], [ -77.045343968342422, 38.901854682113758 ], [ -77.044824886894631, 38.901670077963558 ], [ -77.044572250085537, 38.901583401162291 ], [ -77.044556263443894, 38.901577168163342 ], [ -77.044539777292641, 38.901571787995714 ], [ -77.044524197787425, 38.90156598661175 ], [ -77.044508264616354, 38.901560565664717 ], [ -77.044449907014581, 38.901541685247139 ], [ -77.0444483341753, 38.901541104189505 ], [ -77.044446697797014, 38.901540642537739 ], [ -77.044351996852811, 38.901509742205931 ], [ -77.044340898252983, 38.901505609973754 ], [ -77.044329426363078, 38.901502155860292 ], [ -77.044297926059173, 38.901491255743586 ], [ -77.044293729905533, 38.901489606784111 ], [ -77.04428936100922, 38.901488259317134 ], [ -77.043658895655511, 38.901265281159453 ], [ -77.043109656206212, 38.90107635921143 ], [ -77.043099901258103, 38.901072546849825 ], [ -77.043089790616861, 38.901069350043215 ], [ -77.042999441961612, 38.901036665304588 ], [ -77.042893921733324, 38.901001578275803 ], [ -77.042884224428064, 38.900997904714671 ], [ -77.042874184429763, 38.9009948444778 ], [ -77.042423480110656, 38.90083714279082 ], [ -77.042422786215937, 38.900836867297002 ], [ -77.042422061487784, 38.900836645512278 ], [ -77.042156743269288, 38.90074347346318 ], [ -77.041791236195323, 38.900617579742672 ], [ -77.041785088265343, 38.900615174058721 ], [ -77.041778697968056, 38.9006131911895 ], [ -77.041374894137505, 38.900469589655074 ], [ -77.041373085596533, 38.900468860770246 ], [ -77.04137119699655, 38.900468268707044 ], [ -77.041236737701112, 38.900420003583015 ], [ -77.041127086840547, 38.900382849116355 ], [ -77.041122094398673, 38.900380924811742 ], [ -77.041116903787966, 38.900379352947546 ], [ -77.039695290116612, 38.899884847655379 ], [ -77.039691772713184, 38.899883458699478 ], [ -77.039688107837165, 38.899882326251976 ], [ -77.039158151076165, 38.899694576099556 ], [ -77.039021464202818, 38.89964926830681 ], [ -77.038920569893392, 38.899649403095694 ], [ -77.038920481275341, 38.899649399812382 ], [ -77.038920392671642, 38.899649403321732 ], [ -77.038755746767094, 38.899649603312056 ], [ -77.037978392945689, 38.899650603516733 ], [ -77.037977446707202, 38.899650568408873 ], [ -77.037976500543834, 38.899650604731548 ], [ -77.037931041165621, 38.899650604747187 ], [ -77.03785362623195, 38.899650703516734 ], [ -77.037403865217414, 38.899651303617496 ], [ -77.037403774595134, 38.899651300259627 ], [ -77.037403683987492, 38.899651303847818 ], [ -77.0367, 38.899652152694358 ], [ -77.0367, 38.897850540087688 ] ] ] } }
]
}
