{
"type": "FeatureCollection",
"name": "transit_stops",
"crs": { "type": "name", "properties": { "name": "urn:ogc:def:crs:OGC:1.3:CRS84" } },
"features": [
{ "type": "Feature", "properties": { "stop_id": 5363, "stop_code": 1000928, "stop_name": "7 St NW+Pennsylvania Av NW", "stop_desc": null, "stop_lat": 38.893624, "stop_lon": -77.022017, "zone_id": null, "stop_url": null, "dist_along_m": 3527.4191965786563, "stop_spacing_m": 49.8, "in_impact_zone": false, "am_peak_trips": 192, "pm_peak_trips": 275, "route_ids": "70,74,79", "total_trips": 1616 }, "geometry": { "type": "Point", "coordinates": [ -77.022017, 38.893624 ] } },
{ "type": "Feature", "properties": { "stop_id": 5366, "stop_code": 1000930, "stop_name": "7 St NW+Pennsylvania Av NW", "stop_desc": null, "stop_lat": 38.89378, "stop_lon": -77.021812, "zone_id": null, "stop_url": null, "dist_along_m": 3516.2301809744472, "stop_spacing_m": 11.2, "in_impact_zone": false, "am_peak_trips": 186, "pm_peak_trips": 273, "route_ids": "70,74,79", "total_trips": 1622 }, "geometry": { "type": "Point", "coordinates": [ -77.021812, 38.89378 ] } },
{ "type": "Feature", "properties": { "stop_id": 5413, "stop_code": 1000948, "stop_name": "Pennsylvania Av NW+10 St NW", "stop_desc": null, "stop_lat": 38.894494, "stop_lon": -77.02558, "zone_id": null, "stop_url": null, "dist_along_m": 4072.8624966446832, "stop_spacing_m": 47.3, "in_impact_zone": false, "am_peak_trips": 163, "pm_peak_trips": 199, "route_ids": "32,36,P6", "total_trips": 1296 }, "geometry": { "type": "Point", "coordinates": [ -77.02558, 38.894494 ] } },
{ "type": "Feature", "properties": { "stop_id": 5438, "stop_code": 1000956, "stop_name": "14 St NW+D St NW", "stop_desc": null, "stop_lat": 38.894814, "stop_lon": -77.032087, "zone_id": null, "stop_url": null, "dist_along_m": 6051.4486871392673, "stop_spacing_m": 0.0, "in_impact_zone": false, "am_peak_trips": 74, "pm_peak_trips": 102, "route_ids": "11Y,16E,3F,52", "total_trips": 675 }, "geometry": { "type": "Point", "coordinates": [ -77.032087, 38.894814 ] } },
{ "type": "Feature", "properties": { "stop_id": 5486, "stop_code": 1000981, "stop_name": "Pennsylvania Av NW+12 St NW", "stop_desc": null, "stop_lat": 38.89536, "stop_lon": -77.028693, "zone_id": null, "stop_url": null, "dist_along_m": 4544.4461217819826, "stop_spacing_m": 235.9, "in_impact_zone": false, "am_peak_trips": 190, "pm_peak_trips": 283, "route_ids": "32,33,36,3F", "total_trips": 1760 }, "geometry": { "type": "Point", "coordinates": [ -77.028693, 38.89536 ] } },
{ "type": "Feature", "properties": { "stop_id": 5492, "stop_code": 1000985, "stop_name": "Pennsylvania Av NW+14 St NW", "stop_desc": null, "stop_lat": 38.895395, "stop_lon": -77.032199, "zone_id": null, "stop_url": null, "dist_along_m": 6039.3656576314106, "stop_spacing_m": 12.1, "in_impact_zone": false, "am_peak_trips": 172, "pm_peak_trips": 305, "route_ids": "11Y,32,33,36", "total_trips": 1775 }, "geometry": { "type": "Point", "coordinates": [ -77.032199, 38.895395 ] } },
{ "type": "Feature", "properties": { "stop_id": 5515, "stop_code": 1000992, "stop_name": "14 St NW+Pennsylvania Av NW", "stop_desc": null, "stop_lat": 38.895972, "stop_lon": -77.031817, "zone_id": null, "stop_url": null, "dist_along_m": 556.15396293203662, "stop_spacing_m": 69.9, "in_impact_zone": false, "am_peak_trips": 72, "pm_peak_trips": 83, "route_ids": "11Y,16E,52", "total_trips": 646 }, "geometry": { "type": "Point", "coordinates": [ -77.031817, 38.895972 ] } },
{ "type": "Feature", "properties": { "stop_id": 5564, "stop_code": 1001017, "stop_name": "14 St NW+Pennsylvania Av NW", "stop_desc": null, "stop_lat": 38.89638, "stop_lon": -77.032086, "zone_id": null, "stop_url": null, "dist_along_m": 5433.6789623993182, "stop_spacing_m": 605.7, "in_impact_zone": false, "am_peak_trips": 74, "pm_peak_trips": 74, "route_ids": "16E,3F,52", "total_trips": 647 }, "geometry": { "type": "Point", "coordinates": [ -77.032086, 38.89638 ] } },
{ "type": "Feature", "properties": { "stop_id": 5772, "stop_code": 1001091, "stop_name": "18 St NW+Pennsylvania Av NW", "stop_desc": null, "stop_lat": 38.899318, "stop_lon": -77.04163, "zone_id": null, "stop_url": null, "dist_along_m": 1206.4889678222485, "stop_spacing_m": 232.0, "in_impact_zone": true, "am_peak_trips": 82, "pm_peak_trips": 164, "route_ids": "11Y,16Y,3Y,42,43", "total_trips": 659 }, "geometry": { "type": "Point", "coordinates": [ -77.04163, 38.899318 ] } },
{ "type": "Feature", "properties": { "stop_id": 5811, "stop_code": 1001112, "stop_name": "19 St NW+H St NW", "stop_desc": null, "stop_lat": 38.899741, "stop_lon": -77.043569, "zone_id": null, "stop_url": null, "dist_along_m": 1555.0645559304098, "stop_spacing_m": 238.7, "in_impact_zone": true, "am_peak_trips": 113, "pm_peak_trips": 149, "route_ids": "11Y,16Y,3Y,42,43", "total_trips": 676 }, "geometry": { "type": "Point", "coordinates": [ -77.043569, 38.899741 ] } },
{ "type": "Feature", "properties": { "stop_id": 5862, "stop_code": 1001148, "stop_name": "H St NW+18 St NW", "stop_desc": null, "stop_lat": 38.900136, "stop_lon": -77.041866, "zone_id": null, "stop_url": null, "dist_along_m": 1438.4491846131048, "stop_spacing_m": 116.6, "in_impact_zone": true, "am_peak_trips": 184, "pm_peak_trips": 273, "route_ids": "32,33,36,80,X2", "total_trips": 1994 }, "geometry": { "type": "Point", "coordinates": [ -77.041866, 38.900136 ] } },
{ "type": "Feature", "properties": { "stop_id": 5918, "stop_code": 1001171, "stop_name": "19 St NW+I St NW", "stop_desc": null, "stop_lat": 38.900955, "stop_lon": -77.043543, "zone_id": null, "stop_url": null, "dist_along_m": 2240.3585275495238, "stop_spacing_m": 336.2, "in_impact_zone": true, "am_peak_trips": 40, "pm_peak_trips": 56, "route_ids": "11Y,16Y,3Y", "total_trips": 112 }, "geometry": { "type": "Point", "coordinates": [ -77.043543, 38.900955 ] } },
{ "type": "Feature", "properties": { "stop_id": 5943, "stop_code": 1001182, "stop_name": "Pennsylvania Av NW+21 St NW", "stop_desc": null, "stop_lat": 38.901242, "stop_lon": -77.046826, "zone_id": null, "stop_url": null, "dist_along_m": 1041.5415722753023, "stop_spacing_m": 97.3, "in_impact_zone": true, "am_peak_trips": 186, "pm_peak_trips": 271, "route_ids": "32,33,36,80,X2", "total_trips": 1994 }, "geometry": { "type": "Point", "coordinates": [ -77.046826, 38.901242 ] } },
{ "type": "Feature", "properties": { "stop_id": 5988, "stop_code": 1001198, "stop_name": "Pennsylvania Av NW+22 St NW", "stop_desc": null, "stop_lat": 38.901996, "stop_lon": -77.048971, "zone_id": null, "stop_url": null, "dist_along_m": 138.11414243339303, "stop_spacing_m": 94.3, "in_impact_zone": true, "am_peak_trips": 189, "pm_peak_trips": 269, "route_ids": "32,33,36,80,X2", "total_trips": 1994 }, "geometry": { "type": "Point", "coordinates": [ -77.048971, 38.901996 ] } },
{ "type": "Feature", "properties": { "stop_id": 5996, "stop_code": 1001202, "stop_name": "Pennsylvania Av NW+22 St NW", "stop_desc": null, "stop_lat": 38.90217, "stop_lon": -77.048575, "zone_id": null, "stop_url": null, "dist_along_m": 860.92215755187306, "stop_spacing_m": 180.6, "in_impact_zone": true, "am_peak_trips": 222, "pm_peak_trips": 339, "route_ids": "32,33,36,38B,80,X2", "total_trips": 2382 }, "geometry": { "type": "Point", "coordinates": [ -77.048575, 38.90217 ] } },
{ "type": "Feature", "properties": { "stop_id": 6084, "stop_code": 1001265, "stop_name": "Pennsylvania Av NW+24 St NW", "stop_desc": null, "stop_lat": 38.9029, "stop_lon": -77.051572, "zone_id": null, "stop_url": null, "dist_along_m": 626.03580074611477, "stop_spacing_m": 138.2, "in_impact_zone": false, "am_peak_trips": 167, "pm_peak_trips": 210, "route_ids": "31,33,38B", "total_trips": 1367 }, "geometry": { "type": "Point", "coordinates": [ -77.051572, 38.9029 ] } },
{ "type": "Feature", "properties": { "stop_id": 6095, "stop_code": 1001270, "stop_name": "Pennsylvania Av NW+24 St NW", "stop_desc": null, "stop_lat": 38.90305, "stop_lon": -77.051163, "zone_id": null, "stop_url": null, "dist_along_m": 2052.6335866890622, "stop_spacing_m": 113.2, "in_impact_zone": false, "am_peak_trips": 126, "pm_peak_trips": 247, "route_ids": "31,33,38B", "total_trips": 1363 }, "geometry": { "type": "Point", "coordinates": [ -77.051163, 38.90305 ] } },
{ "type": "Feature", "properties": { "stop_id": 6144, "stop_code": 1001290, "stop_name": "Pennsylvania Av NW+L St NW", "stop_desc": null, "stop_lat": 38.90385, "stop_lon": -77.054294, "zone_id": null, "stop_url": null, "dist_along_m": 1138.8906795152627, "stop_spacing_m": 36.4, "in_impact_zone": false, "am_peak_trips": 168, "pm_peak_trips": 210, "route_ids": "31,33,38B", "total_trips": 1367 }, "geometry": { "type": "Point", "coordinates": [ -77.054294, 38.90385 ] } },
{ "type": "Feature", "properties": { "stop_id": 13537, "stop_code": 1003197, "stop_name": "E St NW+13 St NW", "stop_desc": null, "stop_lat": 38.896235, "stop_lon": -77.029375, "zone_id": null, "stop_url": null, "dist_along_m": 365.52122807927054, "stop_spacing_m": 190.6, "in_impact_zone": false, "am_peak_trips": 39, "pm_peak_trips": 62, "route_ids": "D6", "total_trips": 323 }, "geometry": { "type": "Point", "coordinates": [ -77.029375, 38.896235 ] } },
{ "type": "Feature", "properties": { "stop_id": 13746, "stop_code": 1003283, "stop_name": "Pennsylvania Av NW+Constitution Av NW", "stop_desc": null, "stop_lat": 38.892477, "stop_lon": -77.018326, "zone_id": null, "stop_url": null, "dist_along_m": 232.46067296603934, "stop_spacing_m": 133.1, "in_impact_zone": false, "am_peak_trips": 162, "pm_peak_trips": 191, "route_ids": "32,36,P6", "total_trips": 1243 }, "geometry": { "type": "Point", "coordinates": [ -77.018326, 38.892477 ] } },
{ "type": "Feature", "properties": { "stop_id": 13752, "stop_code": 1003288, "stop_name": "10 St NW+Pennsylvania Av NW", "stop_desc": null, "stop_lat": 38.893649, "stop_lon": -77.025842, "zone_id": null, "stop_url": null, "dist_along_m": 4148.7187158995039, "stop_spacing_m": 34.7, "in_impact_zone": false, "am_peak_trips": 160, "pm_peak_trips": 260, "route_ids": "33", "total_trips": 1537 }, "geometry": { "type": "Point", "coordinates": [ -77.025842, 38.893649 ] } },
{ "type": "Feature", "properties": { "stop_id": 16660, "stop_code": 1003398, "stop_name": "Pennsylvania Av NW+7 St NW", "stop_desc": null, "stop_lat": 38.893668, "stop_lon": -77.022606, "zone_id": null, "stop_url": null, "dist_along_m": 3577.2006545205959, "stop_spacing_m": 272.7, "in_impact_zone": false, "am_peak_trips": 163, "pm_peak_trips": 199, "route_ids": "32,36,P6", "total_trips": 1296 }, "geometry": { "type": "Point", "coordinates": [ -77.022606, 38.893668 ] } },
{ "type": "Feature", "properties": { "stop_id": 16684, "stop_code": 1000993, "stop_name": "Pennsylvania Av NW+14 St NW", "stop_desc": null, "stop_lat": 38.895643, "stop_lon": -77.031672, "zone_id": null, "stop_url": null, "dist_along_m": 5142.9046940730295, "stop_spacing_m": 290.8, "in_impact_zone": false, "am_peak_trips": 190, "pm_peak_trips": 273, "route_ids": "32,33,36", "total_trips": 1748 }, "geometry": { "type": "Point", "coordinates": [ -77.031672, 38.895643 ] } },
{ "type": "Feature", "properties": { "stop_id": 18208, "stop_code": 1003763, "stop_name": "Pennsylvania Av NW+7 St NW", "stop_desc": null, "stop_lat": 38.893424, "stop_lon": -77.022898, "zone_id": null, "stop_url": null, "dist_along_m": 2576.5329110036123, "stop_spacing_m": 58.4, "in_impact_zone": false, "am_peak_trips": 42, "pm_peak_trips": 69, "route_ids": "P6", "total_trips": 364 }, "geometry": { "type": "Point", "coordinates": [ -77.022898, 38.893424 ] } },
{ "type": "Feature", "properties": { "stop_id": 19153, "stop_code": 1000944, "stop_name": "Pennsylvania Av NW+10 St NW", "stop_desc": null, "stop_lat": 38.894074, "stop_lon": -77.025226, "zone_id": null, "stop_url": null, "dist_along_m": 4183.4614821496125, "stop_spacing_m": 361.0, "in_impact_zone": false, "am_peak_trips": 213, "pm_peak_trips": 348, "route_ids": "32,33,36,P6,S2", "total_trips": 2234 }, "geometry": { "type": "Point", "coordinates": [ -77.025226, 38.894074 ] } },
{ "type": "Feature", "properties": { "stop_id": 21626, "stop_code": 1000889, "stop_name": "Pennsylvania Av NW+6 St NW", "stop_desc": null, "stop_lat": 38.89278, "stop_lon": -77.020302, "zone_id": null, "stop_url": null, "dist_along_m": 3849.9455213111087, "stop_spacing_m": 222.9, "in_impact_zone": false, "am_peak_trips": 37, "pm_peak_trips": 60, "route_ids": "P6", "total_trips": 311 }, "geometry": { "type": "Point", "coordinates": [ -77.020302, 38.89278 ] } },
{ "type": "Feature", "properties": { "stop_id": 21712, "stop_code": 1003226, "stop_name": "Pennsylvania Av NW+L St NW", "stop_desc": null, "stop_lat": 38.903637, "stop_lon": -77.052894, "zone_id": null, "stop_url": null, "dist_along_m": 764.23687327352013, "stop_spacing_m": 96.7, "in_impact_zone": false, "am_peak_trips": 126, "pm_peak_trips": 251, "route_ids": "31,33,38B", "total_trips": 1363 }, "geometry": { "type": "Point", "coordinates": [ -77.052894, 38.903637 ] } },
{ "type": "Feature", "properties": { "stop_id": 21743, "stop_code": 1001179, "stop_name": "I St NW+20 St NW", "stop_desc": null, "stop_lat": 38.90141, "stop_lon": -77.045415, "zone_id": null, "stop_url": null, "dist_along_m": 2165.8812856841555, "stop_spacing_m": 74.5, "in_impact_zone": true, "am_peak_trips": 227, "pm_peak_trips": 343, "route_ids": "32,33,36,38B,80,X2", "total_trips": 2382 }, "geometry": { "type": "Point", "coordinates": [ -77.045415, 38.90141 ] } },
{ "type": "Feature", "properties": { "stop_id": 21787, "stop_code": 1000976, "stop_name": "Pennsylvania Av NW+13 St NW", "stop_desc": null, "stop_lat": 38.895126, "stop_lon": -77.029066, "zone_id": null, "stop_url": null, "dist_along_m": 4780.3810766215111, "stop_spacing_m": 362.5, "in_impact_zone": false, "am_peak_trips": 168, "pm_peak_trips": 279, "route_ids": "32,33,36", "total_trips": 1747 }, "geometry": { "type": "Point", "coordinates": [ -77.029066, 38.895126 ] } },
{ "type": "Feature", "properties": { "stop_id": 21788, "stop_code": 1003033, "stop_name": "Pennsylvania Av NW+7 St NW", "stop_desc": null, "stop_lat": 38.893256, "stop_lon": -77.022261, "zone_id": null, "stop_url": null, "dist_along_m": 2634.8934407372344, "stop_spacing_m": 881.3, "in_impact_zone": false, "am_peak_trips": 86, "pm_peak_trips": 152, "route_ids": "32,33,36,S2", "total_trips": 1161 }, "geometry": { "type": "Point", "coordinates": [ -77.022261, 38.893256 ] } },
{ "type": "Feature", "properties": { "stop_id": 21794, "stop_code": 1003691, "stop_name": "10 St NW+Pennsylvania Av NW", "stop_desc": null, "stop_lat": 38.893818, "stop_lon": -77.02609, "zone_id": null, "stop_url": null, "dist_along_m": 4120.1271473271554, "stop_spacing_m": 28.6, "in_impact_zone": false, "am_peak_trips": 43, "pm_peak_trips": 68, "route_ids": "64", "total_trips": 360 }, "geometry": { "type": "Point", "coordinates": [ -77.02609, 38.893818 ] } },
{ "type": "Feature", "properties": { "stop_id": 21949, "stop_code": 1001316, "stop_name": "Pennsylvania Av NW+28 St NW", "stop_desc": null, "stop_lat": 38.90479, "stop_lon": -77.05683, "zone_id": null, "stop_url": null, "dist_along_m": 1799.3373649500766, "stop_spacing_m": 94.4, "in_impact_zone": false, "am_peak_trips": 166, "pm_peak_trips": 214, "route_ids": "31,33,38B", "total_trips": 1367 }, "geometry": { "type": "Point", "coordinates": [ -77.05683, 38.90479 ] } },
{ "type": "Feature", "properties": { "stop_id": 21977, "stop_code": 1001299, "stop_name": "Pennsylvania Av NW+26 St NW", "stop_desc": null, "stop_lat": 38.904218, "stop_lon": -77.054544, "zone_id": null, "stop_url": null, "dist_along_m": 1175.2639001738128, "stop_spacing_m": 31.2, "in_impact_zone": false, "am_peak_trips": 126, "pm_peak_trips": 251, "route_ids": "31,33,38B", "total_trips": 1363 }, "geometry": { "type": "Point", "coordinates": [ -77.054544, 38.904218 ] } },
{ "type": "Feature", "properties": { "stop_id": 21979, "stop_code": 1003227, "stop_name": "Pennsylvania Av NW+28 St NW", "stop_desc": null, "stop_lat": 38.904908, "stop_lon": -77.056692, "zone_id": null, "stop_url": null, "dist_along_m": 1793.7295593053029, "stop_spacing_m": 5.6, "in_impact_zone": false, "am_peak_trips": 126, "pm_peak_trips": 251, "route_ids": "31,33,38B", "total_trips": 1363 }, "geometry": { "type": "Point", "coordinates": [ -77.056692, 38.904908 ] } },
{ "type": "Feature", "properties": { "stop_id": 27864, "stop_code": 1003733, "stop_name": "15 St NW+New York Av NW", "stop_desc": null, "stop_lat": 38.899051, "stop_lon": -77.033743, "zone_id": null, "stop_url": null, "dist_along_m": 1893.6976357863482, "stop_spacing_m": 158.9, "in_impact_zone": false, "am_peak_trips": 174, "pm_peak_trips": 299, "route_ids": "11Y,32,33,36", "total_trips": 1775 }, "geometry": { "type": "Point", "coordinates": [ -77.033743, 38.899051 ] } }
]
}
